<?xml version="1.0" encoding="UTF-8"?>
<kml xmlns="http://www.opengis.net/kml/2.2" xmlns:gx="http://www.google.com/kml/ext/2.2" xmlns:kml="http://www.opengis.net/kml/2.2" xmlns:atom="http://www.w3.org/2005/Atom">
<Document>
	<name>杆塔数据.kml</name>
	<StyleMap id="msn_purple-pushpin">
		<Pair>
			<key>normal</key>
			<styleUrl>#sn_purple-pushpin3</styleUrl>
		</Pair>
		<Pair>
			<key>highlight</key>
			<styleUrl>#sh_purple-pushpin3</styleUrl>
		</Pair>
	</StyleMap>
	<StyleMap id="msn_ylw-pushpin2">
		<Pair>
			<key>normal</key>
			<styleUrl>#sn_ylw-pushpin1</styleUrl>
		</Pair>
		<Pair>
			<key>highlight</key>
			<styleUrl>#sh_ylw-pushpin1</styleUrl>
		</Pair>
	</StyleMap>
	<Style id="sn_ylw-pushpin1">
		<IconStyle>
			<scale>1.1</scale>
			<Icon>
				<href>http://maps.google.com/mapfiles/kml/pushpin/ylw-pushpin.png</href>
			</Icon>
			<hotSpot x="20" y="2" xunits="pixels" yunits="pixels"/>
		</IconStyle>
	</Style>
	<StyleMap id="m_ylw-pushpin">
		<Pair>
			<key>normal</key>
			<styleUrl>#s_ylw-pushpin</styleUrl>
		</Pair>
		<Pair>
			<key>highlight</key>
			<styleUrl>#s_ylw-pushpin_hl</styleUrl>
		</Pair>
	</StyleMap>
	<StyleMap id="msn_ylw-pushpin0">
		<Pair>
			<key>normal</key>
			<styleUrl>#sn_ylw-pushpin2</styleUrl>
		</Pair>
		<Pair>
			<key>highlight</key>
			<styleUrl>#sh_ylw-pushpin0</styleUrl>
		</Pair>
	</StyleMap>
	<Style id="sh_purple-pushpin3">
		<IconStyle>
			<scale>1.3</scale>
			<Icon>
				<href>http://maps.google.com/mapfiles/kml/pushpin/purple-pushpin.png</href>
			</Icon>
			<hotSpot x="20" y="2" xunits="pixels" yunits="pixels"/>
		</IconStyle>
	</Style>
	<Style id="sn_ylw-pushpin0">
		<IconStyle>
			<scale>1.1</scale>
			<Icon>
				<href>http://maps.google.com/mapfiles/kml/pushpin/ylw-pushpin.png</href>
			</Icon>
			<hotSpot x="20" y="2" xunits="pixels" yunits="pixels"/>
		</IconStyle>
	</Style>
	<Style id="s_ylw-pushpin_hl">
		<IconStyle>
			<scale>1.3</scale>
			<Icon>
				<href>http://maps.google.com/mapfiles/kml/pushpin/ylw-pushpin.png</href>
			</Icon>
			<hotSpot x="20" y="2" xunits="pixels" yunits="pixels"/>
		</IconStyle>
	</Style>
	<Style id="sh_ylw-pushpin0">
		<IconStyle>
			<scale>1.3</scale>
			<Icon>
				<href>http://maps.google.com/mapfiles/kml/pushpin/ylw-pushpin.png</href>
			</Icon>
			<hotSpot x="20" y="2" xunits="pixels" yunits="pixels"/>
		</IconStyle>
	</Style>
	<Style id="sh_ylw-pushpin3">
		<IconStyle>
			<scale>1.3</scale>
			<Icon>
				<href>http://maps.google.com/mapfiles/kml/pushpin/ylw-pushpin.png</href>
			</Icon>
			<hotSpot x="20" y="2" xunits="pixels" yunits="pixels"/>
		</IconStyle>
	</Style>
	<Style id="s_ylw-pushpin">
		<IconStyle>
			<scale>1.1</scale>
			<Icon>
				<href>http://maps.google.com/mapfiles/kml/pushpin/ylw-pushpin.png</href>
			</Icon>
			<hotSpot x="20" y="2" xunits="pixels" yunits="pixels"/>
		</IconStyle>
	</Style>
	<Style id="sn_purple-pushpin3">
		<IconStyle>
			<scale>1.1</scale>
			<Icon>
				<href>http://maps.google.com/mapfiles/kml/pushpin/purple-pushpin.png</href>
			</Icon>
			<hotSpot x="20" y="2" xunits="pixels" yunits="pixels"/>
		</IconStyle>
	</Style>
	<StyleMap id="msn_ylw-pushpin3">
		<Pair>
			<key>normal</key>
			<styleUrl>#sn_ylw-pushpin0</styleUrl>
		</Pair>
		<Pair>
			<key>highlight</key>
			<styleUrl>#sh_ylw-pushpin3</styleUrl>
		</Pair>
	</StyleMap>
	<Style id="sh_ylw-pushpin1">
		<IconStyle>
			<scale>1.3</scale>
			<Icon>
				<href>http://maps.google.com/mapfiles/kml/pushpin/ylw-pushpin.png</href>
			</Icon>
			<hotSpot x="20" y="2" xunits="pixels" yunits="pixels"/>
		</IconStyle>
	</Style>
	<Style id="sn_ylw-pushpin2">
		<IconStyle>
			<scale>1.1</scale>
			<Icon>
				<href>http://maps.google.com/mapfiles/kml/pushpin/ylw-pushpin.png</href>
			</Icon>
			<hotSpot x="20" y="2" xunits="pixels" yunits="pixels"/>
		</IconStyle>
	</Style>
	<Folder>
		<name>杆塔数据</name>
		<open>1</open>
		<Placemark>
			<name>Pylon1</name>
			<open>1</open>
			<LookAt>
				<gx:TimeStamp><when>2021-11-26</when>
</gx:TimeStamp>
				<gx:ViewerOptions>
					<gx:option name="historicalimagery"></gx:option>
					<gx:option enabled="0" name="sunlight"></gx:option>
					<gx:option enabled="0" name="streetview"></gx:option>
				</gx:ViewerOptions>
				<longitude>112.0615961814809</longitude>
				<latitude>21.91370121444393</latitude>
				<altitude>0</altitude>
				<heading>3.646563891975747</heading>
				<tilt>22.71112542287992</tilt>
				<range>838.1101245221067</range>
				<gx:altitudeMode>relativeToSeaFloor</gx:altitudeMode>
			</LookAt>
			<styleUrl>#msn_ylw-pushpin3</styleUrl>
			<Point>
				<gx:drawOrder>1</gx:drawOrder>
				<coordinates>112.0646893716221,21.91566247719409,0</coordinates>
			</Point>
		</Placemark>
		<Placemark>
			<name>Pylon2</name>
			<open>1</open>
			<LookAt>
				<gx:TimeStamp><when>2021-11-26</when>
</gx:TimeStamp>
				<gx:ViewerOptions>
					<gx:option name="historicalimagery"></gx:option>
					<gx:option enabled="0" name="sunlight"></gx:option>
					<gx:option enabled="0" name="streetview"></gx:option>
				</gx:ViewerOptions>
				<longitude>112.0619835978192</longitude>
				<latitude>21.91475359033199</latitude>
				<altitude>0</altitude>
				<heading>3.646708479010175</heading>
				<tilt>22.71112542287989</tilt>
				<range>838.1101245209489</range>
				<gx:altitudeMode>relativeToSeaFloor</gx:altitudeMode>
			</LookAt>
			<styleUrl>#msn_ylw-pushpin3</styleUrl>
			<Point>
				<gx:drawOrder>1</gx:drawOrder>
				<coordinates>112.062657916368,21.91647793732771,0</coordinates>
			</Point>
		</Placemark>
		<Placemark>
			<name>Pylon3</name>
			<open>1</open>
			<LookAt>
				<gx:TimeStamp><when>2021-11-26</when>
</gx:TimeStamp>
				<gx:ViewerOptions>
					<gx:option name="historicalimagery"></gx:option>
					<gx:option enabled="0" name="sunlight"></gx:option>
					<gx:option enabled="0" name="streetview"></gx:option>
				</gx:ViewerOptions>
				<longitude>112.0613387783377</longitude>
				<latitude>21.91772424500498</latitude>
				<altitude>0</altitude>
				<heading>3.661646842506241</heading>
				<tilt>24.63776048331388</tilt>
				<range>841.210913785273</range>
				<gx:altitudeMode>relativeToSeaFloor</gx:altitudeMode>
			</LookAt>
			<styleUrl>#msn_ylw-pushpin3</styleUrl>
			<Point>
				<gx:drawOrder>1</gx:drawOrder>
				<coordinates>112.0621522198437,21.91783547618086,0</coordinates>
			</Point>
		</Placemark>
		<Placemark>
			<name>Pylon4</name>
			<LookAt>
				<longitude>112.0659647365527</longitude>
				<latitude>21.91908492521074</latitude>
				<altitude>0</altitude>
				<heading>0.01004898204870264</heading>
				<tilt>27.22629566838911</tilt>
				<range>255.7195995717934</range>
				<gx:altitudeMode>relativeToSeaFloor</gx:altitudeMode>
			</LookAt>
			<styleUrl>#m_ylw-pushpin</styleUrl>
			<Point>
				<gx:drawOrder>1</gx:drawOrder>
				<coordinates>112.0656628627289,21.91921620008972,0</coordinates>
			</Point>
		</Placemark>
		<Placemark>
			<name>Pylon5</name>
			<LookAt>
				<longitude>112.0661068838078</longitude>
				<latitude>21.91883364508735</latitude>
				<altitude>0</altitude>
				<heading>0.01010204198272148</heading>
				<tilt>27.22629566838911</tilt>
				<range>255.7195995672181</range>
				<gx:altitudeMode>relativeToSeaFloor</gx:altitudeMode>
			</LookAt>
			<styleUrl>#m_ylw-pushpin</styleUrl>
			<Point>
				<gx:drawOrder>1</gx:drawOrder>
				<coordinates>112.0657247578584,21.91884835539401,0</coordinates>
			</Point>
		</Placemark>
		<Placemark>
			<name>Pylon6</name>
			<LookAt>
				<longitude>112.0642837968887</longitude>
				<latitude>21.91391646740772</latitude>
				<altitude>0</altitude>
				<heading>0.01041031349586506</heading>
				<tilt>24.32815583846361</tilt>
				<range>400.3684249771945</range>
				<gx:altitudeMode>relativeToSeaFloor</gx:altitudeMode>
			</LookAt>
			<styleUrl>#m_ylw-pushpin</styleUrl>
			<Point>
				<gx:drawOrder>1</gx:drawOrder>
				<coordinates>112.0635721850753,21.91403737070193,0</coordinates>
			</Point>
		</Placemark>
		<Placemark>
			<name>Pylon7</name>
			<LookAt>
				<longitude>112.0652938349291</longitude>
				<latitude>21.91307418999155</latitude>
				<altitude>0</altitude>
				<heading>0.009722285138161224</heading>
				<tilt>25.59899930456703</tilt>
				<range>392.721433444918</range>
				<gx:altitudeMode>relativeToSeaFloor</gx:altitudeMode>
			</LookAt>
			<styleUrl>#m_ylw-pushpin</styleUrl>
			<Point>
				<gx:drawOrder>1</gx:drawOrder>
				<coordinates>112.0646941288022,21.91367618329834,0</coordinates>
			</Point>
		</Placemark>
		<Placemark>
			<name>Pylon8</name>
			<LookAt>
				<longitude>112.0649208792226</longitude>
				<latitude>21.91222067712441</latitude>
				<altitude>0</altitude>
				<heading>0.0065562592203934</heading>
				<tilt>30.0013387273982</tilt>
				<range>298.142121573612</range>
				<gx:altitudeMode>relativeToSeaFloor</gx:altitudeMode>
			</LookAt>
			<styleUrl>#m_ylw-pushpin</styleUrl>
			<Point>
				<gx:drawOrder>1</gx:drawOrder>
				<coordinates>112.0647740843296,21.9118367802669,0</coordinates>
			</Point>
		</Placemark>
		<Placemark>
			<name>Pylon9</name>
			<LookAt>
				<longitude>112.0649208792226</longitude>
				<latitude>21.91222067712441</latitude>
				<altitude>0</altitude>
				<heading>0.0065562592203934</heading>
				<tilt>30.0013387273982</tilt>
				<range>298.142121573612</range>
				<gx:altitudeMode>relativeToSeaFloor</gx:altitudeMode>
			</LookAt>
			<styleUrl>#m_ylw-pushpin</styleUrl>
			<Point>
				<gx:drawOrder>1</gx:drawOrder>
				<coordinates>112.0644227957363,21.91171143444269,0</coordinates>
			</Point>
		</Placemark>
		<Placemark>
			<name>Pylon10</name>
			<LookAt>
				<longitude>112.066044755654</longitude>
				<latitude>21.90953243388715</latitude>
				<altitude>0</altitude>
				<heading>0.009517256569730577</heading>
				<tilt>26.33017942246276</tilt>
				<range>349.0091694448765</range>
				<gx:altitudeMode>relativeToSeaFloor</gx:altitudeMode>
			</LookAt>
			<styleUrl>#m_ylw-pushpin</styleUrl>
			<Point>
				<gx:drawOrder>1</gx:drawOrder>
				<coordinates>112.06578138646,21.91036359184903,0</coordinates>
			</Point>
		</Placemark>
		<Placemark>
			<name>Pylon11</name>
			<LookAt>
				<longitude>112.066044755654</longitude>
				<latitude>21.90953243388715</latitude>
				<altitude>0</altitude>
				<heading>0.009517256569730577</heading>
				<tilt>26.33017942246276</tilt>
				<range>349.0091694448765</range>
				<gx:altitudeMode>relativeToSeaFloor</gx:altitudeMode>
			</LookAt>
			<styleUrl>#m_ylw-pushpin</styleUrl>
			<Point>
				<gx:drawOrder>1</gx:drawOrder>
				<coordinates>112.0657080059173,21.90993601162286,0</coordinates>
			</Point>
		</Placemark>
		<Placemark>
			<name>Pylon12</name>
			<LookAt>
				<longitude>112.065188158941</longitude>
				<latitude>21.90943348779922</latitude>
				<altitude>0</altitude>
				<heading>0.009051200578248892</heading>
				<tilt>26.52080606405195</tilt>
				<range>307.9914231502373</range>
				<gx:altitudeMode>relativeToSeaFloor</gx:altitudeMode>
			</LookAt>
			<styleUrl>#m_ylw-pushpin</styleUrl>
			<Point>
				<gx:drawOrder>1</gx:drawOrder>
				<coordinates>112.0645479677,21.90979031657957,0</coordinates>
			</Point>
		</Placemark>
		<Placemark>
			<name>Pylon13</name>
			<LookAt>
				<longitude>112.065188158941</longitude>
				<latitude>21.90943348779922</latitude>
				<altitude>0</altitude>
				<heading>0.009051200578248892</heading>
				<tilt>26.52080606405195</tilt>
				<range>307.9914231502373</range>
				<gx:altitudeMode>relativeToSeaFloor</gx:altitudeMode>
			</LookAt>
			<styleUrl>#m_ylw-pushpin</styleUrl>
			<Point>
				<gx:drawOrder>1</gx:drawOrder>
				<coordinates>112.064769806668,21.90949224179027,0</coordinates>
			</Point>
		</Placemark>
		<Placemark>
			<name>Pylon14</name>
			<LookAt>
				<longitude>112.0673605862955</longitude>
				<latitude>21.9086240973383</latitude>
				<altitude>0</altitude>
				<heading>0.008143480574238467</heading>
				<tilt>29.38288968080342</tilt>
				<range>314.4514251834807</range>
				<gx:altitudeMode>relativeToSeaFloor</gx:altitudeMode>
			</LookAt>
			<styleUrl>#m_ylw-pushpin</styleUrl>
			<Point>
				<gx:drawOrder>1</gx:drawOrder>
				<coordinates>112.0670926427948,21.90861694894637,0</coordinates>
			</Point>
		</Placemark>
		<Placemark>
			<name>Pylon15</name>
			<LookAt>
				<longitude>112.0680295807962</longitude>
				<latitude>21.90717084984441</latitude>
				<altitude>0</altitude>
				<heading>0.00801655805365987</heading>
				<tilt>30.00087833870547</tilt>
				<range>195.6024944158831</range>
				<gx:altitudeMode>relativeToSeaFloor</gx:altitudeMode>
			</LookAt>
			<styleUrl>#m_ylw-pushpin</styleUrl>
			<Point>
				<gx:drawOrder>1</gx:drawOrder>
				<coordinates>112.067699719956,21.90719136461105,0</coordinates>
			</Point>
		</Placemark>
		<Placemark>
			<name>Pylon16</name>
			<LookAt>
				<longitude>112.0693148944042</longitude>
				<latitude>21.90601855708887</latitude>
				<altitude>0</altitude>
				<heading>0.01058360280091417</heading>
				<tilt>26.85488563362788</tilt>
				<range>191.3708272255013</range>
				<gx:altitudeMode>relativeToSeaFloor</gx:altitudeMode>
			</LookAt>
			<styleUrl>#m_ylw-pushpin</styleUrl>
			<Point>
				<gx:drawOrder>1</gx:drawOrder>
				<coordinates>112.0689693910978,21.90603973457139,0</coordinates>
			</Point>
		</Placemark>
		<Placemark>
			<name>Pylon17</name>
			<LookAt>
				<longitude>112.0704339712935</longitude>
				<latitude>21.9040314648765</latitude>
				<altitude>0</altitude>
				<heading>0.009604777555467396</heading>
				<tilt>28.91383679552079</tilt>
				<range>169.9437884864078</range>
				<gx:altitudeMode>relativeToSeaFloor</gx:altitudeMode>
			</LookAt>
			<styleUrl>#m_ylw-pushpin</styleUrl>
			<Point>
				<gx:drawOrder>1</gx:drawOrder>
				<coordinates>112.0700684154779,21.90396919916184,0</coordinates>
			</Point>
		</Placemark>
		<Placemark>
			<name>Pylon18</name>
			<LookAt>
				<longitude>112.0704339712935</longitude>
				<latitude>21.9040314648765</latitude>
				<altitude>0</altitude>
				<heading>0.009604777555467396</heading>
				<tilt>28.91383679552079</tilt>
				<range>169.9437884864078</range>
				<gx:altitudeMode>relativeToSeaFloor</gx:altitudeMode>
			</LookAt>
			<styleUrl>#m_ylw-pushpin</styleUrl>
			<Point>
				<gx:drawOrder>1</gx:drawOrder>
				<coordinates>112.0704459269791,21.90395027356064,0</coordinates>
			</Point>
		</Placemark>
		<Placemark>
			<name>Pylon19</name>
			<LookAt>
				<longitude>112.0722951257028</longitude>
				<latitude>21.90136374553246</latitude>
				<altitude>0</altitude>
				<heading>0.009632710570944107</heading>
				<tilt>30.0009752091135</tilt>
				<range>217.1511723935866</range>
				<gx:altitudeMode>relativeToSeaFloor</gx:altitudeMode>
			</LookAt>
			<styleUrl>#m_ylw-pushpin</styleUrl>
			<Point>
				<gx:drawOrder>1</gx:drawOrder>
				<coordinates>112.0721678960384,21.90157284119144,0</coordinates>
			</Point>
		</Placemark>
		<Placemark>
			<name>Pylon20</name>
			<LookAt>
				<longitude>112.0722951257028</longitude>
				<latitude>21.90136374553246</latitude>
				<altitude>0</altitude>
				<heading>0.009632710570944107</heading>
				<tilt>30.0009752091135</tilt>
				<range>217.1511723935866</range>
				<gx:altitudeMode>relativeToSeaFloor</gx:altitudeMode>
			</LookAt>
			<styleUrl>#m_ylw-pushpin</styleUrl>
			<Point>
				<gx:drawOrder>1</gx:drawOrder>
				<coordinates>112.0720532621396,21.90121277860142,0</coordinates>
			</Point>
		</Placemark>
		<Placemark>
			<name>Pylon21</name>
			<LookAt>
				<longitude>112.0735914371853</longitude>
				<latitude>21.89974085629555</latitude>
				<altitude>0</altitude>
				<heading>0.01023035825128786</heading>
				<tilt>30.00065280019672</tilt>
				<range>145.4238638098969</range>
				<gx:altitudeMode>relativeToSeaFloor</gx:altitudeMode>
			</LookAt>
			<styleUrl>#m_ylw-pushpin</styleUrl>
			<Point>
				<gx:drawOrder>1</gx:drawOrder>
				<coordinates>112.0735336979141,21.89975614601399,0</coordinates>
			</Point>
		</Placemark>
		<Placemark>
			<name>Pylon22</name>
			<LookAt>
				<gx:TimeStamp><when>2021-11-26</when>
</gx:TimeStamp>
				<gx:ViewerOptions>
					<gx:option name="historicalimagery"></gx:option>
					<gx:option enabled="0" name="sunlight"></gx:option>
					<gx:option enabled="0" name="streetview"></gx:option>
				</gx:ViewerOptions>
				<longitude>112.0726530647308</longitude>
				<latitude>21.89975362749587</latitude>
				<altitude>0</altitude>
				<heading>3.698143383970687</heading>
				<tilt>30.00221379653673</tilt>
				<range>492.9019205637093</range>
				<gx:altitudeMode>relativeToSeaFloor</gx:altitudeMode>
			</LookAt>
			<styleUrl>#msn_ylw-pushpin2</styleUrl>
			<Point>
				<gx:drawOrder>1</gx:drawOrder>
				<coordinates>112.0737681871887,21.89879643548684,0</coordinates>
			</Point>
		</Placemark>
		<Placemark>
			<name>Pylon23</name>
			<LookAt>
				<longitude>112.0751448158979</longitude>
				<latitude>21.89828339989116</latitude>
				<altitude>0</altitude>
				<heading>0.01151848147679863</heading>
				<tilt>28.86068185296155</tilt>
				<range>315.9954349464104</range>
				<gx:altitudeMode>relativeToSeaFloor</gx:altitudeMode>
			</LookAt>
			<styleUrl>#m_ylw-pushpin</styleUrl>
			<Point>
				<gx:drawOrder>1</gx:drawOrder>
				<coordinates>112.0745520025273,21.89835086351459,0</coordinates>
			</Point>
		</Placemark>
		<Placemark>
			<name>Pylon24</name>
			<open>1</open>
			<LookAt>
				<longitude>112.0760705369502</longitude>
				<latitude>21.8971990049671</latitude>
				<altitude>0</altitude>
				<heading>0.01186371347485129</heading>
				<tilt>28.86068185296151</tilt>
				<range>315.9954349459542</range>
				<gx:altitudeMode>relativeToSeaFloor</gx:altitudeMode>
			</LookAt>
			<styleUrl>#m_ylw-pushpin</styleUrl>
			<Point>
				<gx:drawOrder>1</gx:drawOrder>
				<coordinates>112.0754539224153,21.89710799525331,0</coordinates>
			</Point>
		</Placemark>
		<Placemark>
			<name>Pylon25</name>
			<open>1</open>
			<LookAt>
				<longitude>112.0757228197083</longitude>
				<latitude>21.89661046881211</latitude>
				<altitude>0</altitude>
				<heading>0.01103438891862787</heading>
				<tilt>30.00118045954146</tilt>
				<range>262.7794126005221</range>
				<gx:altitudeMode>relativeToSeaFloor</gx:altitudeMode>
			</LookAt>
			<styleUrl>#m_ylw-pushpin</styleUrl>
			<Point>
				<gx:drawOrder>1</gx:drawOrder>
				<coordinates>112.0753509012752,21.89667461457196,0</coordinates>
			</Point>
		</Placemark>
		<Placemark>
			<name>Pylon26</name>
			<open>1</open>
			<LookAt>
				<gx:TimeStamp><when>2021-11-26</when>
</gx:TimeStamp>
				<gx:ViewerOptions>
					<gx:option name="historicalimagery"></gx:option>
					<gx:option enabled="0" name="sunlight"></gx:option>
					<gx:option enabled="0" name="streetview"></gx:option>
				</gx:ViewerOptions>
				<longitude>112.0773435781199</longitude>
				<latitude>21.89726638770928</latitude>
				<altitude>0</altitude>
				<heading>3.697572029004514</heading>
				<tilt>29.55078816003273</tilt>
				<range>672.6778772025193</range>
				<gx:altitudeMode>relativeToSeaFloor</gx:altitudeMode>
			</LookAt>
			<styleUrl>#msn_ylw-pushpin2</styleUrl>
			<Point>
				<gx:drawOrder>1</gx:drawOrder>
				<coordinates>112.0780964548437,21.89707686092848,0</coordinates>
			</Point>
		</Placemark>
		<Placemark>
			<name>Pylon27</name>
			<open>1</open>
			<LookAt>
				<gx:TimeStamp><when>2021-11-26</when>
</gx:TimeStamp>
				<gx:ViewerOptions>
					<gx:option name="historicalimagery"></gx:option>
					<gx:option enabled="0" name="sunlight"></gx:option>
					<gx:option enabled="0" name="streetview"></gx:option>
				</gx:ViewerOptions>
				<longitude>112.0773435781199</longitude>
				<latitude>21.89726638770928</latitude>
				<altitude>0</altitude>
				<heading>3.697572029004514</heading>
				<tilt>29.55078816003273</tilt>
				<range>672.6778772025193</range>
				<gx:altitudeMode>relativeToSeaFloor</gx:altitudeMode>
			</LookAt>
			<styleUrl>#msn_ylw-pushpin2</styleUrl>
			<Point>
				<gx:drawOrder>1</gx:drawOrder>
				<coordinates>112.078600553425,21.89669794546591,0</coordinates>
			</Point>
		</Placemark>
		<Placemark>
			<name>Pylon28</name>
			<LookAt>
				<longitude>112.0813085411954</longitude>
				<latitude>21.89687558404032</latitude>
				<altitude>0</altitude>
				<heading>3.681110942532166</heading>
				<tilt>27.46620436804118</tilt>
				<range>268.6808911420034</range>
				<gx:altitudeMode>relativeToSeaFloor</gx:altitudeMode>
			</LookAt>
			<styleUrl>#m_ylw-pushpin</styleUrl>
			<Point>
				<gx:drawOrder>1</gx:drawOrder>
				<coordinates>112.0808444177511,21.89707481679879,0</coordinates>
			</Point>
		</Placemark>
		<Placemark>
			<name>Pylon29</name>
			<open>1</open>
			<LookAt>
				<longitude>112.0825997549267</longitude>
				<latitude>21.89666965537166</latitude>
				<altitude>0</altitude>
				<heading>0.01359721004403554</heading>
				<tilt>30.00104179523732</tilt>
				<range>231.6624458206465</range>
				<gx:altitudeMode>relativeToSeaFloor</gx:altitudeMode>
			</LookAt>
			<styleUrl>#m_ylw-pushpin</styleUrl>
			<Point>
				<gx:drawOrder>1</gx:drawOrder>
				<coordinates>112.0825296496272,21.89707292487908,0</coordinates>
			</Point>
		</Placemark>
		<Placemark>
			<name>Pylon30</name>
			<open>1</open>
			<LookAt>
				<longitude>112.0825997549267</longitude>
				<latitude>21.89666965537166</latitude>
				<altitude>0</altitude>
				<heading>0.01359721004403554</heading>
				<tilt>30.00104179523732</tilt>
				<range>231.6624458206465</range>
				<gx:altitudeMode>relativeToSeaFloor</gx:altitudeMode>
			</LookAt>
			<styleUrl>#m_ylw-pushpin</styleUrl>
			<Point>
				<gx:drawOrder>1</gx:drawOrder>
				<coordinates>112.0825652105896,21.89668551443658,0</coordinates>
			</Point>
		</Placemark>
		<Placemark>
			<name>Pylon31</name>
			<open>1</open>
			<LookAt>
				<longitude>112.0855205440304</longitude>
				<latitude>21.89679976650399</latitude>
				<altitude>0</altitude>
				<heading>0.01590692167399122</heading>
				<tilt>27.98926444978605</tilt>
				<range>166.4779741634687</range>
				<gx:altitudeMode>relativeToSeaFloor</gx:altitudeMode>
			</LookAt>
			<styleUrl>#m_ylw-pushpin</styleUrl>
			<Point>
				<gx:drawOrder>1</gx:drawOrder>
				<coordinates>112.0850368628394,21.89709235812841,0</coordinates>
			</Point>
		</Placemark>
		<Placemark>
			<name>Pylon32</name>
			<open>1</open>
			<LookAt>
				<longitude>112.0855205440304</longitude>
				<latitude>21.89679976650399</latitude>
				<altitude>0</altitude>
				<heading>0.01590692167399122</heading>
				<tilt>27.98926444978605</tilt>
				<range>166.4779741634687</range>
				<gx:altitudeMode>relativeToSeaFloor</gx:altitudeMode>
			</LookAt>
			<styleUrl>#m_ylw-pushpin</styleUrl>
			<Point>
				<gx:drawOrder>1</gx:drawOrder>
				<coordinates>112.085230215232,21.89666535041305,0</coordinates>
			</Point>
		</Placemark>
		<Placemark>
			<name>Pylon33</name>
			<open>1</open>
			<LookAt>
				<longitude>112.0879098722378</longitude>
				<latitude>21.89684302439374</latitude>
				<altitude>0</altitude>
				<heading>0.01679799851975919</heading>
				<tilt>27.9895675101979</tilt>
				<range>238.3721997552811</range>
				<gx:altitudeMode>relativeToSeaFloor</gx:altitudeMode>
			</LookAt>
			<styleUrl>#m_ylw-pushpin</styleUrl>
			<Point>
				<gx:drawOrder>1</gx:drawOrder>
				<coordinates>112.0883937955655,21.89709784816544,0</coordinates>
			</Point>
		</Placemark>
		<Placemark>
			<name>Pylon34</name>
			<open>1</open>
			<LookAt>
				<longitude>112.0879098722378</longitude>
				<latitude>21.89684302439374</latitude>
				<altitude>0</altitude>
				<heading>0.01679799851975919</heading>
				<tilt>27.9895675101979</tilt>
				<range>238.3721997552811</range>
				<gx:altitudeMode>relativeToSeaFloor</gx:altitudeMode>
			</LookAt>
			<styleUrl>#m_ylw-pushpin</styleUrl>
			<Point>
				<gx:drawOrder>1</gx:drawOrder>
				<coordinates>112.0878406955855,21.89667410949263,0</coordinates>
			</Point>
		</Placemark>
		<Placemark>
			<name>Pylon35</name>
			<open>1</open>
			<LookAt>
				<longitude>112.0900321665352</longitude>
				<latitude>21.89682219222123</latitude>
				<altitude>0</altitude>
				<heading>0.01727045727583608</heading>
				<tilt>28.4987087978886</tilt>
				<range>331.0001919324013</range>
				<gx:altitudeMode>relativeToSeaFloor</gx:altitudeMode>
			</LookAt>
			<styleUrl>#m_ylw-pushpin</styleUrl>
			<Point>
				<gx:drawOrder>1</gx:drawOrder>
				<coordinates>112.0902805382209,21.89710923944241,0</coordinates>
			</Point>
		</Placemark>
		<Placemark>
			<name>Pylon36</name>
			<open>1</open>
			<LookAt>
				<longitude>112.0900321665352</longitude>
				<latitude>21.89682219222123</latitude>
				<altitude>0</altitude>
				<heading>0.01727045727583608</heading>
				<tilt>28.4987087978886</tilt>
				<range>331.0001919324013</range>
				<gx:altitudeMode>relativeToSeaFloor</gx:altitudeMode>
			</LookAt>
			<styleUrl>#m_ylw-pushpin</styleUrl>
			<Point>
				<gx:drawOrder>1</gx:drawOrder>
				<coordinates>112.0900307854806,21.89669008026218,0</coordinates>
			</Point>
		</Placemark>
		<Placemark>
			<name>Pylon37</name>
			<open>1</open>
			<LookAt>
				<longitude>112.0929213860521</longitude>
				<latitude>21.89679713701294</latitude>
				<altitude>0</altitude>
				<heading>0.01834794697492693</heading>
				<tilt>28.49870879788857</tilt>
				<range>331.0001919311737</range>
				<gx:altitudeMode>relativeToSeaFloor</gx:altitudeMode>
			</LookAt>
			<styleUrl>#m_ylw-pushpin</styleUrl>
			<Point>
				<gx:drawOrder>1</gx:drawOrder>
				<coordinates>112.0921143736128,21.89711022165562,0</coordinates>
			</Point>
		</Placemark>
		<Placemark>
			<name>Pylon38</name>
			<open>1</open>
			<LookAt>
				<longitude>112.0929213860521</longitude>
				<latitude>21.89679713701294</latitude>
				<altitude>0</altitude>
				<heading>0.01834794697492693</heading>
				<tilt>28.49870879788857</tilt>
				<range>331.0001919311737</range>
				<gx:altitudeMode>relativeToSeaFloor</gx:altitudeMode>
			</LookAt>
			<styleUrl>#m_ylw-pushpin</styleUrl>
			<Point>
				<gx:drawOrder>1</gx:drawOrder>
				<coordinates>112.0931897691983,21.89667071662382,0</coordinates>
			</Point>
		</Placemark>
		<Placemark>
			<name>Pylon39</name>
			<open>1</open>
			<LookAt>
				<longitude>112.0953392769095</longitude>
				<latitude>21.8966415982193</latitude>
				<altitude>0</altitude>
				<heading>0.01924966747872031</heading>
				<tilt>28.4987087978886</tilt>
				<range>331.0001919320656</range>
				<gx:altitudeMode>relativeToSeaFloor</gx:altitudeMode>
			</LookAt>
			<styleUrl>#m_ylw-pushpin</styleUrl>
			<Point>
				<gx:drawOrder>1</gx:drawOrder>
				<coordinates>112.0942582395299,21.89709847307606,0</coordinates>
			</Point>
		</Placemark>
		<Placemark>
			<name>Pylon40</name>
			<open>1</open>
			<LookAt>
				<longitude>112.097134592897</longitude>
				<latitude>21.89671611463719</latitude>
				<altitude>0</altitude>
				<heading>0.01991920212748427</heading>
				<tilt>28.49870879788859</tilt>
				<range>331.0001919341288</range>
				<gx:altitudeMode>relativeToSeaFloor</gx:altitudeMode>
			</LookAt>
			<styleUrl>#m_ylw-pushpin</styleUrl>
			<Point>
				<gx:drawOrder>1</gx:drawOrder>
				<coordinates>112.096453209131,21.89669101024307,0</coordinates>
			</Point>
		</Placemark>
		<Placemark>
			<name>Pylon41</name>
			<open>1</open>
			<LookAt>
				<longitude>112.097134592897</longitude>
				<latitude>21.89671611463719</latitude>
				<altitude>0</altitude>
				<heading>0.01991920212748427</heading>
				<tilt>28.49870879788859</tilt>
				<range>331.0001919341288</range>
				<gx:altitudeMode>relativeToSeaFloor</gx:altitudeMode>
			</LookAt>
			<styleUrl>#m_ylw-pushpin</styleUrl>
			<Point>
				<gx:drawOrder>1</gx:drawOrder>
				<coordinates>112.0974024879275,21.89712214281279,0</coordinates>
			</Point>
		</Placemark>
		<Placemark>
			<name>Pylon42</name>
			<open>1</open>
			<LookAt>
				<longitude>112.0991656927281</longitude>
				<latitude>21.89677437723195</latitude>
				<altitude>0</altitude>
				<heading>0.02067666635582126</heading>
				<tilt>28.49870879788859</tilt>
				<range>331.000191932603</range>
				<gx:altitudeMode>relativeToSeaFloor</gx:altitudeMode>
			</LookAt>
			<styleUrl>#m_ylw-pushpin</styleUrl>
			<Point>
				<gx:drawOrder>1</gx:drawOrder>
				<coordinates>112.0992265895229,21.89712698603139,0</coordinates>
			</Point>
		</Placemark>
		<Placemark>
			<name>Pylon43</name>
			<open>1</open>
			<LookAt>
				<longitude>112.0991656927281</longitude>
				<latitude>21.89677437723195</latitude>
				<altitude>0</altitude>
				<heading>0.02067666635582126</heading>
				<tilt>28.49870879788859</tilt>
				<range>331.000191932603</range>
				<gx:altitudeMode>relativeToSeaFloor</gx:altitudeMode>
			</LookAt>
			<styleUrl>#m_ylw-pushpin</styleUrl>
			<Point>
				<gx:drawOrder>1</gx:drawOrder>
				<coordinates>112.0998108221555,21.89669672850082,0</coordinates>
			</Point>
		</Placemark>
		<Placemark>
			<name>Pylon44</name>
			<open>1</open>
			<LookAt>
				<longitude>112.1018868576143</longitude>
				<latitude>21.89686445173057</latitude>
				<altitude>0</altitude>
				<heading>0.02082384532633276</heading>
				<tilt>30.00148787864211</tilt>
				<range>331.3712505365452</range>
				<gx:altitudeMode>relativeToSeaFloor</gx:altitudeMode>
			</LookAt>
			<styleUrl>#m_ylw-pushpin</styleUrl>
			<Point>
				<gx:drawOrder>1</gx:drawOrder>
				<coordinates>112.1014893568218,21.89712065335727,0</coordinates>
			</Point>
		</Placemark>
		<Placemark>
			<name>Pylon45</name>
			<open>1</open>
			<LookAt>
				<longitude>112.1031576656631</longitude>
				<latitude>21.89690785413247</latitude>
				<altitude>0</altitude>
				<heading>0.02129777487290981</heading>
				<tilt>30.0014878786421</tilt>
				<range>331.3712505343586</range>
				<gx:altitudeMode>relativeToSeaFloor</gx:altitudeMode>
			</LookAt>
			<styleUrl>#m_ylw-pushpin</styleUrl>
			<Point>
				<gx:drawOrder>1</gx:drawOrder>
				<coordinates>112.103300082242,21.89669708583511,0</coordinates>
			</Point>
		</Placemark>
		<Placemark>
			<name>Pylon46</name>
			<LookAt>
				<longitude>112.1049167424698</longitude>
				<latitude>21.89703623856965</latitude>
				<altitude>0</altitude>
				<heading>3.690064465824479</heading>
				<tilt>29.25498761929576</tilt>
				<range>226.0346849441298</range>
				<gx:altitudeMode>relativeToSeaFloor</gx:altitudeMode>
			</LookAt>
			<styleUrl>#m_ylw-pushpin</styleUrl>
			<Point>
				<gx:drawOrder>1</gx:drawOrder>
				<coordinates>112.1045799586323,21.89712182668251,0</coordinates>
			</Point>
		</Placemark>
		<Placemark>
			<name>Pylon47</name>
			<LookAt>
				<longitude>112.1049167424698</longitude>
				<latitude>21.89703623856965</latitude>
				<altitude>0</altitude>
				<heading>3.690064465824479</heading>
				<tilt>29.25498761929576</tilt>
				<range>226.0346849441298</range>
				<gx:altitudeMode>relativeToSeaFloor</gx:altitudeMode>
			</LookAt>
			<styleUrl>#m_ylw-pushpin</styleUrl>
			<Point>
				<gx:drawOrder>1</gx:drawOrder>
				<coordinates>112.1047085735427,21.8975854003071,0</coordinates>
			</Point>
		</Placemark>
		<Placemark>
			<name>Pylon48</name>
			<LookAt>
				<longitude>112.1053709175207</longitude>
				<latitude>21.89685242608236</latitude>
				<altitude>0</altitude>
				<heading>3.690291679578971</heading>
				<tilt>30.00122180930103</tilt>
				<range>272.0277103849918</range>
				<gx:altitudeMode>relativeToSeaFloor</gx:altitudeMode>
			</LookAt>
			<styleUrl>#m_ylw-pushpin</styleUrl>
			<Point>
				<gx:drawOrder>1</gx:drawOrder>
				<coordinates>112.1056819984778,21.89713792212699,0</coordinates>
			</Point>
		</Placemark>
		<Placemark>
			<name>Pylon49</name>
			<LookAt>
				<longitude>112.1060261381463</longitude>
				<latitude>21.89670862467705</latitude>
				<altitude>0</altitude>
				<heading>3.690536031582426</heading>
				<tilt>30.00122180930103</tilt>
				<range>272.0277103861666</range>
				<gx:altitudeMode>relativeToSeaFloor</gx:altitudeMode>
			</LookAt>
			<styleUrl>#m_ylw-pushpin</styleUrl>
			<Point>
				<gx:drawOrder>1</gx:drawOrder>
				<coordinates>112.1059834859025,21.89667305122334,0</coordinates>
			</Point>
		</Placemark>
		<Placemark>
			<name>Pylon50</name>
			<LookAt>
				<longitude>112.1066039836258</longitude>
				<latitude>21.89672734123177</latitude>
				<altitude>0</altitude>
				<heading>3.69075152955201</heading>
				<tilt>30.00122180930103</tilt>
				<range>272.0277103861732</range>
				<gx:altitudeMode>relativeToSeaFloor</gx:altitudeMode>
			</LookAt>
			<styleUrl>#m_ylw-pushpin</styleUrl>
			<Point>
				<gx:drawOrder>1</gx:drawOrder>
				<coordinates>112.1065693266006,21.89702237874674,0</coordinates>
			</Point>
		</Placemark>
		<Placemark>
			<name>Pylon51</name>
			<LookAt>
				<longitude>112.1066039836258</longitude>
				<latitude>21.89672734123177</latitude>
				<altitude>0</altitude>
				<heading>3.69075152955201</heading>
				<tilt>30.00122180930103</tilt>
				<range>272.0277103861732</range>
				<gx:altitudeMode>relativeToSeaFloor</gx:altitudeMode>
			</LookAt>
			<styleUrl>#m_ylw-pushpin</styleUrl>
			<Point>
				<gx:drawOrder>1</gx:drawOrder>
				<coordinates>112.1071387771287,21.89679523814409,0</coordinates>
			</Point>
		</Placemark>
		<Placemark>
			<name>Pylon52</name>
			<open>1</open>
			<LookAt>
				<gx:TimeStamp><when>2021-11-26</when>
</gx:TimeStamp>
				<gx:ViewerOptions>
					<gx:option name="historicalimagery"></gx:option>
					<gx:option enabled="0" name="sunlight"></gx:option>
					<gx:option enabled="0" name="streetview"></gx:option>
				</gx:ViewerOptions>
				<longitude>112.1069840548522</longitude>
				<latitude>21.89659634487475</latitude>
				<altitude>0</altitude>
				<heading>3.71095911775485</heading>
				<tilt>30.00266308903308</tilt>
				<range>592.9285757644385</range>
				<gx:altitudeMode>relativeToSeaFloor</gx:altitudeMode>
			</LookAt>
			<styleUrl>#msn_ylw-pushpin2</styleUrl>
			<Point>
				<gx:drawOrder>1</gx:drawOrder>
				<coordinates>112.1076536934761,21.89703045876126,0</coordinates>
			</Point>
		</Placemark>
		<Placemark>
			<name>Pylon53</name>
			<LookAt>
				<longitude>112.1049729735164</longitude>
				<latitude>21.89598486579451</latitude>
				<altitude>0</altitude>
				<heading>3.689855848495387</heading>
				<tilt>27.00049229114045</tilt>
				<range>377.7916402617867</range>
				<gx:altitudeMode>relativeToSeaFloor</gx:altitudeMode>
			</LookAt>
			<styleUrl>#m_ylw-pushpin</styleUrl>
			<Point>
				<gx:drawOrder>1</gx:drawOrder>
				<coordinates>112.1046832273812,21.89589501673862,0</coordinates>
			</Point>
		</Placemark>
		<Placemark>
			<name>Pylon54</name>
			<open>1</open>
			<LookAt>
				<gx:TimeStamp><when>2021-11-26</when>
</gx:TimeStamp>
				<gx:ViewerOptions>
					<gx:option name="historicalimagery"></gx:option>
					<gx:option enabled="0" name="sunlight"></gx:option>
					<gx:option enabled="0" name="streetview"></gx:option>
				</gx:ViewerOptions>
				<longitude>112.1044385932423</longitude>
				<latitude>21.89291338567604</latitude>
				<altitude>0</altitude>
				<heading>3.716744233607621</heading>
				<tilt>29.16441903295194</tilt>
				<range>1032.129482918851</range>
				<gx:altitudeMode>relativeToSeaFloor</gx:altitudeMode>
			</LookAt>
			<styleUrl>#msn_ylw-pushpin0</styleUrl>
			<Point>
				<gx:drawOrder>1</gx:drawOrder>
				<coordinates>112.1046849854602,21.89382498996039,0</coordinates>
			</Point>
		</Placemark>
		<Placemark>
			<name>Pylon55</name>
			<LookAt>
				<longitude>112.1059548018691</longitude>
				<latitude>21.89271990250439</latitude>
				<altitude>0</altitude>
				<heading>3.690221936611299</heading>
				<tilt>27.00049229114042</tilt>
				<range>377.7916402612427</range>
				<gx:altitudeMode>relativeToSeaFloor</gx:altitudeMode>
			</LookAt>
			<styleUrl>#m_ylw-pushpin</styleUrl>
			<Point>
				<gx:drawOrder>1</gx:drawOrder>
				<coordinates>112.1059630308432,21.89300605994342,0</coordinates>
			</Point>
		</Placemark>
		<Placemark>
			<name>Pylon56</name>
			<LookAt>
				<longitude>112.1075416742689</longitude>
				<latitude>21.89268322062769</latitude>
				<altitude>0</altitude>
				<heading>3.690674221808847</heading>
				<tilt>22.2971411275795</tilt>
				<range>713.0991580942867</range>
				<gx:altitudeMode>relativeToSeaFloor</gx:altitudeMode>
			</LookAt>
			<styleUrl>#m_ylw-pushpin</styleUrl>
			<Point>
				<gx:drawOrder>1</gx:drawOrder>
				<coordinates>112.1079039945336,21.89243051417348,0</coordinates>
			</Point>
		</Placemark>
		<Placemark>
			<name>Pylon57</name>
			<LookAt>
				<longitude>112.1075416742689</longitude>
				<latitude>21.89268322062769</latitude>
				<altitude>0</altitude>
				<heading>3.690674221808847</heading>
				<tilt>22.2971411275795</tilt>
				<range>713.0991580942867</range>
				<gx:altitudeMode>relativeToSeaFloor</gx:altitudeMode>
			</LookAt>
			<styleUrl>#m_ylw-pushpin</styleUrl>
			<Point>
				<gx:drawOrder>1</gx:drawOrder>
				<coordinates>112.107861140904,21.89196710932428,0</coordinates>
			</Point>
		</Placemark>
		<Placemark>
			<name>Pylon58</name>
			<LookAt>
				<longitude>112.109360076253</longitude>
				<latitude>21.89104385551892</latitude>
				<altitude>0</altitude>
				<heading>3.691770359626865</heading>
				<tilt>25.140968486475</tilt>
				<range>1100.369036527697</range>
				<gx:altitudeMode>relativeToSeaFloor</gx:altitudeMode>
			</LookAt>
			<styleUrl>#m_ylw-pushpin</styleUrl>
			<Point>
				<gx:drawOrder>1</gx:drawOrder>
				<coordinates>112.109650149396,21.89098338347506,0</coordinates>
			</Point>
		</Placemark>
		<Placemark>
			<name>Pylon59</name>
			<LookAt>
				<longitude>112.109360076253</longitude>
				<latitude>21.89104385551892</latitude>
				<altitude>0</altitude>
				<heading>3.691770359626865</heading>
				<tilt>25.140968486475</tilt>
				<range>1100.369036527697</range>
				<gx:altitudeMode>relativeToSeaFloor</gx:altitudeMode>
			</LookAt>
			<styleUrl>#m_ylw-pushpin</styleUrl>
			<Point>
				<gx:drawOrder>1</gx:drawOrder>
				<coordinates>112.107687900748,21.89078046001091,0</coordinates>
			</Point>
		</Placemark>
		<Placemark>
			<name>Pylon60</name>
			<LookAt>
				<longitude>112.1080892132023</longitude>
				<latitude>21.89059298890104</latitude>
				<altitude>0</altitude>
				<heading>3.691296536702855</heading>
				<tilt>25.140968486475</tilt>
				<range>1100.369036529911</range>
				<gx:altitudeMode>relativeToSeaFloor</gx:altitudeMode>
			</LookAt>
			<styleUrl>#m_ylw-pushpin</styleUrl>
			<Point>
				<gx:drawOrder>1</gx:drawOrder>
				<coordinates>112.1128270449111,21.88938327974,0</coordinates>
			</Point>
		</Placemark>
		<Placemark>
			<name>Pylon61</name>
			<LookAt>
				<longitude>112.1067537753579</longitude>
				<latitude>21.88954526692677</latitude>
				<altitude>0</altitude>
				<heading>3.690798659313397</heading>
				<tilt>25.14096848647502</tilt>
				<range>1100.369036529302</range>
				<gx:altitudeMode>relativeToSeaFloor</gx:altitudeMode>
			</LookAt>
			<styleUrl>#m_ylw-pushpin</styleUrl>
			<Point>
				<gx:drawOrder>1</gx:drawOrder>
				<coordinates>112.1051647456971,21.88977069461406,0</coordinates>
			</Point>
		</Placemark>
		<Placemark>
			<name>Pylon62</name>
			<LookAt>
				<longitude>112.1093785431202</longitude>
				<latitude>21.8933911656577</latitude>
				<altitude>0</altitude>
				<heading>3.692182653145027</heading>
				<tilt>28.60859766732443</tilt>
				<range>364.1253617128867</range>
				<gx:altitudeMode>relativeToSeaFloor</gx:altitudeMode>
			</LookAt>
			<styleUrl>#m_ylw-pushpin</styleUrl>
			<Point>
				<gx:drawOrder>1</gx:drawOrder>
				<coordinates>112.10921566059,21.89318380280213,0</coordinates>
			</Point>
		</Placemark>
		<Placemark>
			<name>Pylon63</name>
			<LookAt>
				<longitude>112.1087264803745</longitude>
				<latitude>21.89520122411974</latitude>
				<altitude>0</altitude>
				<heading>3.691939523471116</heading>
				<tilt>28.60961974156502</tilt>
				<range>601.7491911786781</range>
				<gx:altitudeMode>relativeToSeaFloor</gx:altitudeMode>
			</LookAt>
			<styleUrl>#m_ylw-pushpin</styleUrl>
			<Point>
				<gx:drawOrder>1</gx:drawOrder>
				<coordinates>112.1082107429939,21.89552346625395,0</coordinates>
			</Point>
		</Placemark>
		<Placemark>
			<name>Pylon64</name>
			<LookAt>
				<longitude>112.1082896353281</longitude>
				<latitude>21.89659439847209</latitude>
				<altitude>0</altitude>
				<heading>3.691780911918802</heading>
				<tilt>28.645464805482</tilt>
				<range>487.9952930593466</range>
				<gx:altitudeMode>relativeToSeaFloor</gx:altitudeMode>
			</LookAt>
			<styleUrl>#m_ylw-pushpin</styleUrl>
			<Point>
				<gx:drawOrder>1</gx:drawOrder>
				<coordinates>112.1085076590709,21.89791628604059,0</coordinates>
			</Point>
		</Placemark>
		<Placemark>
			<name>Pylon65</name>
			<LookAt>
				<longitude>112.1072458739277</longitude>
				<latitude>21.89985458561165</latitude>
				<altitude>0</altitude>
				<heading>3.691190741483628</heading>
				<tilt>27.4087732146672</tilt>
				<range>767.1778464136347</range>
				<gx:altitudeMode>relativeToSeaFloor</gx:altitudeMode>
			</LookAt>
			<styleUrl>#m_ylw-pushpin</styleUrl>
			<Point>
				<gx:drawOrder>1</gx:drawOrder>
				<coordinates>112.1088225502177,21.90155895619207,0</coordinates>
			</Point>
		</Placemark>
		<Placemark>
			<name>Pylon66</name>
			<LookAt>
				<longitude>112.1072339935552</longitude>
				<latitude>21.8998760416106</latitude>
				<altitude>0</altitude>
				<heading>3.691186309825021</heading>
				<tilt>27.4087732146672</tilt>
				<range>767.177846412888</range>
				<gx:altitudeMode>relativeToSeaFloor</gx:altitudeMode>
			</LookAt>
			<styleUrl>#m_ylw-pushpin</styleUrl>
			<Point>
				<gx:drawOrder>1</gx:drawOrder>
				<coordinates>112.1076909346709,21.90023699723129,0</coordinates>
			</Point>
		</Placemark>
		<Placemark>
			<name>Pylon67</name>
			<LookAt>
				<longitude>112.1072339935552</longitude>
				<latitude>21.8998760416106</latitude>
				<altitude>0</altitude>
				<heading>3.691186309825021</heading>
				<tilt>27.4087732146672</tilt>
				<range>767.177846412888</range>
				<gx:altitudeMode>relativeToSeaFloor</gx:altitudeMode>
			</LookAt>
			<styleUrl>#m_ylw-pushpin</styleUrl>
			<Point>
				<gx:drawOrder>1</gx:drawOrder>
				<coordinates>112.1072292558953,21.9005423700341,0</coordinates>
			</Point>
		</Placemark>
		<Placemark>
			<name>Pylon68</name>
			<LookAt>
				<longitude>112.1072339935552</longitude>
				<latitude>21.8998760416106</latitude>
				<altitude>0</altitude>
				<heading>3.691186309825021</heading>
				<tilt>27.4087732146672</tilt>
				<range>767.177846412888</range>
				<gx:altitudeMode>relativeToSeaFloor</gx:altitudeMode>
			</LookAt>
			<styleUrl>#m_ylw-pushpin</styleUrl>
			<Point>
				<gx:drawOrder>1</gx:drawOrder>
				<coordinates>112.1067285128582,21.90061715250198,0</coordinates>
			</Point>
		</Placemark>
		<Placemark>
			<name>Pylon69</name>
			<LookAt>
				<longitude>112.106681790244</longitude>
				<latitude>21.90053430908339</latitude>
				<altitude>0</altitude>
				<heading>3.69098035766954</heading>
				<tilt>27.40877321466719</tilt>
				<range>767.1778464135748</range>
				<gx:altitudeMode>relativeToSeaFloor</gx:altitudeMode>
			</LookAt>
			<styleUrl>#m_ylw-pushpin</styleUrl>
			<Point>
				<gx:drawOrder>1</gx:drawOrder>
				<coordinates>112.1048227274042,21.901208319053,0</coordinates>
			</Point>
		</Placemark>
		<Placemark>
			<name>Pylon70</name>
			<LookAt>
				<longitude>112.1065955311643</longitude>
				<latitude>21.9005877441384</latitude>
				<altitude>0</altitude>
				<heading>3.691049159167869</heading>
				<tilt>28.01719333085863</tilt>
				<range>447.8680720017477</range>
				<gx:altitudeMode>relativeToSeaFloor</gx:altitudeMode>
			</LookAt>
			<styleUrl>#m_ylw-pushpin</styleUrl>
			<Point>
				<gx:drawOrder>1</gx:drawOrder>
				<coordinates>112.1063132353201,21.9011701619809,0</coordinates>
			</Point>
		</Placemark>
		<Placemark>
			<name>Pylon71</name>
			<LookAt>
				<longitude>112.1070424656554</longitude>
				<latitude>21.89835954621088</latitude>
				<altitude>0</altitude>
				<heading>3.691339602677894</heading>
				<tilt>28.84401081768079</tilt>
				<range>435.6571293332394</range>
				<gx:altitudeMode>relativeToSeaFloor</gx:altitudeMode>
			</LookAt>
			<styleUrl>#m_ylw-pushpin</styleUrl>
			<Point>
				<gx:drawOrder>1</gx:drawOrder>
				<coordinates>112.1071455290171,21.89823919486436,0</coordinates>
			</Point>
		</Placemark>
		<Placemark>
			<name>Pylon72</name>
			<LookAt>
				<longitude>112.1067807905793</longitude>
				<latitude>21.89876566610742</latitude>
				<altitude>0</altitude>
				<heading>3.691242012739403</heading>
				<tilt>28.84401081768078</tilt>
				<range>435.6571293300411</range>
				<gx:altitudeMode>relativeToSeaFloor</gx:altitudeMode>
			</LookAt>
			<styleUrl>#m_ylw-pushpin</styleUrl>
			<Point>
				<gx:drawOrder>1</gx:drawOrder>
				<coordinates>112.1061737200815,21.89880008928315,0</coordinates>
			</Point>
		</Placemark>
		<Placemark>
			<name>Pylon73</name>
			<LookAt>
				<longitude>112.1061258600955</longitude>
				<latitude>21.89929292025175</latitude>
				<altitude>0</altitude>
				<heading>3.690997749987878</heading>
				<tilt>28.84401081768076</tilt>
				<range>435.6571293302939</range>
				<gx:altitudeMode>relativeToSeaFloor</gx:altitudeMode>
			</LookAt>
			<styleUrl>#m_ylw-pushpin</styleUrl>
			<Point>
				<gx:drawOrder>1</gx:drawOrder>
				<coordinates>112.1058432007819,21.89930005865667,0</coordinates>
			</Point>
		</Placemark>
		<Placemark>
			<name>Pylon74</name>
			<LookAt>
				<longitude>112.1071191516391</longitude>
				<latitude>21.90247634858206</latitude>
				<altitude>0</altitude>
				<heading>3.691335454588092</heading>
				<tilt>28.62903412374108</tilt>
				<range>446.0627426908943</range>
				<gx:altitudeMode>relativeToSeaFloor</gx:altitudeMode>
			</LookAt>
			<styleUrl>#m_ylw-pushpin</styleUrl>
			<Point>
				<gx:drawOrder>1</gx:drawOrder>
				<coordinates>112.1072995626498,21.90282310336926,0</coordinates>
			</Point>
		</Placemark>
		<Placemark>
			<name>Pylon75</name>
			<LookAt>
				<longitude>112.1071191516391</longitude>
				<latitude>21.90247634858206</latitude>
				<altitude>0</altitude>
				<heading>3.691335454588092</heading>
				<tilt>28.62903412374108</tilt>
				<range>446.0627426908943</range>
				<gx:altitudeMode>relativeToSeaFloor</gx:altitudeMode>
			</LookAt>
			<styleUrl>#m_ylw-pushpin</styleUrl>
			<Point>
				<gx:drawOrder>1</gx:drawOrder>
				<coordinates>112.1077056359531,21.9035364352455,0</coordinates>
			</Point>
		</Placemark>
		<Placemark>
			<name>Pylon76</name>
			<LookAt>
				<longitude>112.104064275274</longitude>
				<latitude>21.91726263697947</latitude>
				<altitude>0</altitude>
				<heading>3.689192694625794</heading>
				<tilt>25.490910553962</tilt>
				<range>449.4422801238116</range>
				<gx:altitudeMode>relativeToSeaFloor</gx:altitudeMode>
			</LookAt>
			<styleUrl>#m_ylw-pushpin</styleUrl>
			<Point>
				<gx:drawOrder>1</gx:drawOrder>
				<coordinates>112.1043068515023,21.91803836228802,0</coordinates>
			</Point>
		</Placemark>
		<Placemark>
			<name>Pylon77</name>
			<LookAt>
				<longitude>112.104064275274</longitude>
				<latitude>21.91726263697947</latitude>
				<altitude>0</altitude>
				<heading>3.689192694625794</heading>
				<tilt>25.490910553962</tilt>
				<range>449.4422801238116</range>
				<gx:altitudeMode>relativeToSeaFloor</gx:altitudeMode>
			</LookAt>
			<styleUrl>#m_ylw-pushpin</styleUrl>
			<Point>
				<gx:drawOrder>1</gx:drawOrder>
				<coordinates>112.1040539298536,21.91714107740793,0</coordinates>
			</Point>
		</Placemark>
		<Placemark>
			<name>Pylon78</name>
			<LookAt>
				<longitude>112.1024803085568</longitude>
				<latitude>21.91724968565722</latitude>
				<altitude>0</altitude>
				<heading>3.688590739848332</heading>
				<tilt>25.43628408667056</tilt>
				<range>418.5546815261428</range>
				<gx:altitudeMode>relativeToSeaFloor</gx:altitudeMode>
			</LookAt>
			<styleUrl>#m_ylw-pushpin</styleUrl>
			<Point>
				<gx:drawOrder>1</gx:drawOrder>
				<coordinates>112.1015549735111,21.91755144129195,0</coordinates>
			</Point>
		</Placemark>
		<Placemark>
			<name>Pylon79</name>
			<LookAt>
				<longitude>112.0990807935991</longitude>
				<latitude>21.91780725909048</latitude>
				<altitude>0</altitude>
				<heading>3.687449533423278</heading>
				<tilt>26.13075408307175</tilt>
				<range>526.425365113801</range>
				<gx:altitudeMode>relativeToSeaFloor</gx:altitudeMode>
			</LookAt>
			<styleUrl>#m_ylw-pushpin</styleUrl>
			<Point>
				<gx:drawOrder>1</gx:drawOrder>
				<coordinates>112.0979481878717,21.91818698493453,0</coordinates>
			</Point>
		</Placemark>
		<Placemark>
			<name>Pylon80</name>
			<LookAt>
				<longitude>112.0958758577713</longitude>
				<latitude>21.91780100320333</latitude>
				<altitude>0</altitude>
				<heading>3.686253207050256</heading>
				<tilt>26.13075408307175</tilt>
				<range>526.4253651132392</range>
				<gx:altitudeMode>relativeToSeaFloor</gx:altitudeMode>
			</LookAt>
			<styleUrl>#m_ylw-pushpin</styleUrl>
			<Point>
				<gx:drawOrder>1</gx:drawOrder>
				<coordinates>112.0951093775695,21.91870376647329,0</coordinates>
			</Point>
		</Placemark>
		<Placemark>
			<name>Pylon81</name>
			<LookAt>
				<longitude>112.093728953996</longitude>
				<latitude>21.91863632342036</latitude>
				<altitude>0</altitude>
				<heading>3.685866707855384</heading>
				<tilt>28.9960670597696</tilt>
				<range>549.6443505546086</range>
				<gx:altitudeMode>relativeToSeaFloor</gx:altitudeMode>
			</LookAt>
			<styleUrl>#m_ylw-pushpin</styleUrl>
			<Point>
				<gx:drawOrder>1</gx:drawOrder>
				<coordinates>112.0926897695082,21.91909257216887,0</coordinates>
			</Point>
		</Placemark>
		<Placemark>
			<name>Pylon82</name>
			<LookAt>
				<longitude>112.0926831788356</longitude>
				<latitude>21.92003986298398</latitude>
				<altitude>0</altitude>
				<heading>3.685476361366882</heading>
				<tilt>28.9960670597696</tilt>
				<range>549.644350554623</range>
				<gx:altitudeMode>relativeToSeaFloor</gx:altitudeMode>
			</LookAt>
			<styleUrl>#m_ylw-pushpin</styleUrl>
			<Point>
				<gx:drawOrder>1</gx:drawOrder>
				<coordinates>112.0909999080728,21.92197493698342,0</coordinates>
			</Point>
		</Placemark>
		<Placemark>
			<name>Pylon83</name>
			<LookAt>
				<longitude>112.0912098492397</longitude>
				<latitude>21.92520179240944</latitude>
				<altitude>0</altitude>
				<heading>3.685040541599737</heading>
				<tilt>30.00417496289904</tilt>
				<range>929.5091119124824</range>
				<gx:altitudeMode>relativeToSeaFloor</gx:altitudeMode>
			</LookAt>
			<styleUrl>#m_ylw-pushpin</styleUrl>
			<Point>
				<gx:drawOrder>1</gx:drawOrder>
				<coordinates>112.0901598454345,21.92431001407902,0</coordinates>
			</Point>
		</Placemark>
		<Placemark>
			<name>Pylon84</name>
			<LookAt>
				<longitude>112.0912098492397</longitude>
				<latitude>21.92520179240944</latitude>
				<altitude>0</altitude>
				<heading>3.685040541599737</heading>
				<tilt>30.00417496289904</tilt>
				<range>929.5091119124824</range>
				<gx:altitudeMode>relativeToSeaFloor</gx:altitudeMode>
			</LookAt>
			<styleUrl>#m_ylw-pushpin</styleUrl>
			<Point>
				<gx:drawOrder>1</gx:drawOrder>
				<coordinates>112.0894732583614,21.92652833940011,0</coordinates>
			</Point>
		</Placemark>
		<Placemark>
			<name>Pylon85</name>
			<LookAt>
				<longitude>112.0912098492397</longitude>
				<latitude>21.92520179240944</latitude>
				<altitude>0</altitude>
				<heading>3.685040541599737</heading>
				<tilt>30.00417496289904</tilt>
				<range>929.5091119124824</range>
				<gx:altitudeMode>relativeToSeaFloor</gx:altitudeMode>
			</LookAt>
			<styleUrl>#m_ylw-pushpin</styleUrl>
			<Point>
				<gx:drawOrder>1</gx:drawOrder>
				<coordinates>112.0882677907493,21.92745907063545,0</coordinates>
			</Point>
		</Placemark>
		<Placemark>
			<name>Pylon86</name>
			<LookAt>
				<longitude>112.094255638603</longitude>
				<latitude>21.91654358042419</latitude>
				<altitude>0</altitude>
				<heading>3.686177238443227</heading>
				<tilt>30.002950762536</tilt>
				<range>656.9515751745458</range>
				<gx:altitudeMode>relativeToSeaFloor</gx:altitudeMode>
			</LookAt>
			<styleUrl>#m_ylw-pushpin</styleUrl>
			<Point>
				<gx:drawOrder>1</gx:drawOrder>
				<coordinates>112.0937717444692,21.91648634553724,0</coordinates>
			</Point>
		</Placemark>
		<Placemark>
			<name>Pylon87</name>
			<LookAt>
				<longitude>112.0923641884308</longitude>
				<latitude>21.91685083371118</latitude>
				<altitude>0</altitude>
				<heading>3.685459215993665</heading>
				<tilt>29.87348927251071</tilt>
				<range>335.9372483835535</range>
				<gx:altitudeMode>relativeToSeaFloor</gx:altitudeMode>
			</LookAt>
			<styleUrl>#m_ylw-pushpin</styleUrl>
			<Point>
				<gx:drawOrder>1</gx:drawOrder>
				<coordinates>112.0921363841566,21.91690601983254,0</coordinates>
			</Point>
		</Placemark>
		<Placemark>
			<name>Pylon88</name>
			<open>1</open>
			<LookAt>
				<gx:TimeStamp><when>2021-11-26</when>
</gx:TimeStamp>
				<gx:ViewerOptions>
					<gx:option name="historicalimagery"></gx:option>
					<gx:option enabled="0" name="sunlight"></gx:option>
					<gx:option enabled="0" name="streetview"></gx:option>
				</gx:ViewerOptions>
				<longitude>112.088588561683</longitude>
				<latitude>21.91819735190057</latitude>
				<altitude>0</altitude>
				<heading>3.697595098897012</heading>
				<tilt>26.95558601102</tilt>
				<range>845.7567025608903</range>
				<gx:altitudeMode>relativeToSeaFloor</gx:altitudeMode>
			</LookAt>
			<styleUrl>#msn_ylw-pushpin3</styleUrl>
			<Point>
				<gx:drawOrder>1</gx:drawOrder>
				<coordinates>112.0893041758695,21.91759370297093,0</coordinates>
			</Point>
		</Placemark>
		<Placemark>
			<name>Pylon89</name>
			<open>1</open>
			<LookAt>
				<gx:TimeStamp><when>2021-11-26</when>
</gx:TimeStamp>
				<gx:ViewerOptions>
					<gx:option name="historicalimagery"></gx:option>
					<gx:option enabled="0" name="sunlight"></gx:option>
					<gx:option enabled="0" name="streetview"></gx:option>
				</gx:ViewerOptions>
				<longitude>112.0854280543796</longitude>
				<latitude>21.91870270241435</latitude>
				<altitude>0</altitude>
				<heading>3.696415361929064</heading>
				<tilt>26.95558601102007</tilt>
				<range>845.756702563373</range>
				<gx:altitudeMode>relativeToSeaFloor</gx:altitudeMode>
			</LookAt>
			<styleUrl>#msn_ylw-pushpin3</styleUrl>
			<Point>
				<gx:drawOrder>1</gx:drawOrder>
				<coordinates>112.0868330924164,21.91824836254295,0</coordinates>
			</Point>
		</Placemark>
		<Placemark>
			<name>Pylon90</name>
			<open>1</open>
			<LookAt>
				<gx:TimeStamp><when>2021-11-26</when>
</gx:TimeStamp>
				<gx:ViewerOptions>
					<gx:option name="historicalimagery"></gx:option>
					<gx:option enabled="0" name="sunlight"></gx:option>
					<gx:option enabled="0" name="streetview"></gx:option>
				</gx:ViewerOptions>
				<longitude>112.0829367271128</longitude>
				<latitude>21.91874956473798</latitude>
				<altitude>0</altitude>
				<heading>3.695485396886963</heading>
				<tilt>26.95558601102003</tilt>
				<range>845.7567025620128</range>
				<gx:altitudeMode>relativeToSeaFloor</gx:altitudeMode>
			</LookAt>
			<styleUrl>#msn_ylw-pushpin3</styleUrl>
			<Point>
				<gx:drawOrder>1</gx:drawOrder>
				<coordinates>112.0841023737563,21.91896571795758,0</coordinates>
			</Point>
		</Placemark>
		<Placemark>
			<name>Pylon91</name>
			<open>1</open>
			<LookAt>
				<gx:TimeStamp><when>2021-11-26</when>
</gx:TimeStamp>
				<gx:ViewerOptions>
					<gx:option name="historicalimagery"></gx:option>
					<gx:option enabled="0" name="sunlight"></gx:option>
					<gx:option enabled="0" name="streetview"></gx:option>
				</gx:ViewerOptions>
				<longitude>112.079394360967</longitude>
				<latitude>21.91879036378783</latitude>
				<altitude>0</altitude>
				<heading>3.69416310437787</heading>
				<tilt>26.95558601102008</tilt>
				<range>845.756702563951</range>
				<gx:altitudeMode>relativeToSeaFloor</gx:altitudeMode>
			</LookAt>
			<styleUrl>#msn_ylw-pushpin3</styleUrl>
			<Point>
				<gx:drawOrder>1</gx:drawOrder>
				<coordinates>112.0813477362553,21.91847538718641,0</coordinates>
			</Point>
		</Placemark>
		<Placemark>
			<name>Pylon92</name>
			<open>1</open>
			<LookAt>
				<gx:TimeStamp><when>2021-11-26</when>
</gx:TimeStamp>
				<gx:ViewerOptions>
					<gx:option name="historicalimagery"></gx:option>
					<gx:option enabled="0" name="sunlight"></gx:option>
					<gx:option enabled="0" name="streetview"></gx:option>
				</gx:ViewerOptions>
				<longitude>112.0760255909905</longitude>
				<latitude>21.9172703887359</latitude>
				<altitude>0</altitude>
				<heading>3.692905665008497</heading>
				<tilt>26.95558601102005</tilt>
				<range>845.7567025648572</range>
				<gx:altitudeMode>relativeToSeaFloor</gx:altitudeMode>
			</LookAt>
			<styleUrl>#msn_ylw-pushpin3</styleUrl>
			<Point>
				<gx:drawOrder>1</gx:drawOrder>
				<coordinates>112.0779025510576,21.91797871890775,0</coordinates>
			</Point>
		</Placemark>
		<Placemark>
			<name>Pylon93</name>
			<LookAt>
				<longitude>112.076364009126</longitude>
				<latitude>21.91679468707875</latitude>
				<altitude>0</altitude>
				<heading>3.679536318571036</heading>
				<tilt>25.2582910567652</tilt>
				<range>409.2606719367733</range>
				<gx:altitudeMode>relativeToSeaFloor</gx:altitudeMode>
			</LookAt>
			<styleUrl>#m_ylw-pushpin</styleUrl>
			<Point>
				<gx:drawOrder>1</gx:drawOrder>
				<coordinates>112.0760908524778,21.91716997515616,0</coordinates>
			</Point>
		</Placemark>
		<Placemark>
			<name>Pylon94</name>
			<LookAt>
				<longitude>112.0753430585756</longitude>
				<latitude>21.91650184801728</latitude>
				<altitude>0</altitude>
				<heading>3.679234939587782</heading>
				<tilt>26.30730087419461</tilt>
				<range>321.1643935225381</range>
				<gx:altitudeMode>relativeToSeaFloor</gx:altitudeMode>
			</LookAt>
			<styleUrl>#m_ylw-pushpin</styleUrl>
			<Point>
				<gx:drawOrder>1</gx:drawOrder>
				<coordinates>112.0747781850261,21.91655115490876,0</coordinates>
			</Point>
		</Placemark>
		<Placemark>
			<name>Pylon95</name>
			<open>1</open>
			<LookAt>
				<gx:TimeStamp><when>2021-11-26</when>
</gx:TimeStamp>
				<gx:ViewerOptions>
					<gx:option name="historicalimagery"></gx:option>
					<gx:option enabled="0" name="sunlight"></gx:option>
					<gx:option enabled="0" name="streetview"></gx:option>
				</gx:ViewerOptions>
				<longitude>112.071959398197</longitude>
				<latitude>21.91474628401254</latitude>
				<altitude>0</altitude>
				<heading>3.691388010746626</heading>
				<tilt>26.95558601102005</tilt>
				<range>845.7567025633375</range>
				<gx:altitudeMode>relativeToSeaFloor</gx:altitudeMode>
			</LookAt>
			<styleUrl>#msn_ylw-pushpin3</styleUrl>
			<Point>
				<gx:drawOrder>1</gx:drawOrder>
				<coordinates>112.0732708801438,21.91412780627342,0</coordinates>
			</Point>
		</Placemark>
		<Placemark>
			<name>Pylon96</name>
			<open>1</open>
			<LookAt>
				<gx:TimeStamp><when>2021-11-26</when>
</gx:TimeStamp>
				<gx:ViewerOptions>
					<gx:option name="historicalimagery"></gx:option>
					<gx:option enabled="0" name="sunlight"></gx:option>
					<gx:option enabled="0" name="streetview"></gx:option>
				</gx:ViewerOptions>
				<longitude>112.0691062180507</longitude>
				<latitude>21.91395668455139</latitude>
				<altitude>0</altitude>
				<heading>3.69032319667687</heading>
				<tilt>26.95558601102003</tilt>
				<range>845.7567025622652</range>
				<gx:altitudeMode>relativeToSeaFloor</gx:altitudeMode>
			</LookAt>
			<styleUrl>#msn_ylw-pushpin3</styleUrl>
			<Point>
				<gx:drawOrder>1</gx:drawOrder>
				<coordinates>112.0700415054921,21.91362411004374,0</coordinates>
			</Point>
		</Placemark>
		<Placemark>
			<name>Pylon97</name>
			<open>1</open>
			<LookAt>
				<gx:TimeStamp><when>2021-11-26</when>
</gx:TimeStamp>
				<gx:ViewerOptions>
					<gx:option name="historicalimagery"></gx:option>
					<gx:option enabled="0" name="sunlight"></gx:option>
					<gx:option enabled="0" name="streetview"></gx:option>
				</gx:ViewerOptions>
				<longitude>112.0678688258308</longitude>
				<latitude>21.91465077967019</latitude>
				<altitude>0</altitude>
				<heading>3.683183967881705</heading>
				<tilt>25.89535843590571</tilt>
				<range>699.7191615197568</range>
				<gx:altitudeMode>relativeToSeaFloor</gx:altitudeMode>
			</LookAt>
			<styleUrl>#msn_ylw-pushpin3</styleUrl>
			<Point>
				<gx:drawOrder>1</gx:drawOrder>
				<coordinates>112.0685465969477,21.91538703205128,0</coordinates>
			</Point>
		</Placemark>
		<Placemark>
			<name>Pylon98</name>
			<open>1</open>
			<LookAt>
				<gx:TimeStamp><when>2021-11-26</when>
</gx:TimeStamp>
				<gx:ViewerOptions>
					<gx:option name="historicalimagery"></gx:option>
					<gx:option enabled="0" name="sunlight"></gx:option>
					<gx:option enabled="0" name="streetview"></gx:option>
				</gx:ViewerOptions>
				<longitude>112.0667955417124</longitude>
				<latitude>21.91748461754527</latitude>
				<altitude>0</altitude>
				<heading>3.696367299131618</heading>
				<tilt>30.00257602844122</tilt>
				<range>573.503273852361</range>
				<gx:altitudeMode>relativeToSeaFloor</gx:altitudeMode>
			</LookAt>
			<styleUrl>#msn_ylw-pushpin2</styleUrl>
			<Point>
				<gx:drawOrder>1</gx:drawOrder>
				<coordinates>112.067203031582,21.91710196409264,0</coordinates>
			</Point>
		</Placemark>
		<Placemark>
			<name>Pylon99</name>
			<open>1</open>
			<LookAt>
				<longitude>112.0661068838078</longitude>
				<latitude>21.91883364508735</latitude>
				<altitude>0</altitude>
				<heading>0.01010204198272148</heading>
				<tilt>27.22629566838911</tilt>
				<range>255.7195995672181</range>
				<gx:altitudeMode>relativeToSeaFloor</gx:altitudeMode>
			</LookAt>
			<styleUrl>#m_ylw-pushpin</styleUrl>
			<Point>
				<gx:drawOrder>1</gx:drawOrder>
				<coordinates>112.0657247578584,21.91884835539401,0</coordinates>
			</Point>
		</Placemark>
		<Placemark>
			<name>Pylon100</name>
			<open>1</open>
			<LookAt>
				<longitude>112.0659647365527</longitude>
				<latitude>21.91908492521074</latitude>
				<altitude>0</altitude>
				<heading>0.01004898204870264</heading>
				<tilt>27.22629566838911</tilt>
				<range>255.7195995717934</range>
				<gx:altitudeMode>relativeToSeaFloor</gx:altitudeMode>
			</LookAt>
			<styleUrl>#m_ylw-pushpin</styleUrl>
			<Point>
				<gx:drawOrder>1</gx:drawOrder>
				<coordinates>112.0656628627289,21.91921620008972,0</coordinates>
			</Point>
		</Placemark>
		<Placemark>
			<name>Pylon101</name>
			<open>1</open>
			<LookAt>
				<gx:TimeStamp><when>2021-11-26</when>
</gx:TimeStamp>
				<gx:ViewerOptions>
					<gx:option name="historicalimagery"></gx:option>
					<gx:option enabled="0" name="sunlight"></gx:option>
					<gx:option enabled="0" name="streetview"></gx:option>
				</gx:ViewerOptions>
				<longitude>112.0620851853653</longitude>
				<latitude>21.91788757336282</latitude>
				<altitude>0</altitude>
				<heading>3.661925467648985</heading>
				<tilt>24.63776048331388</tilt>
				<range>841.2109137849502</range>
				<gx:altitudeMode>relativeToSeaFloor</gx:altitudeMode>
			</LookAt>
			<styleUrl>#msn_ylw-pushpin3</styleUrl>
			<Point>
				<gx:drawOrder>1</gx:drawOrder>
				<coordinates>112.0646104384925,21.91947384730759,0</coordinates>
			</Point>
		</Placemark>
		<Placemark>
			<name>Pylon102</name>
			<open>1</open>
			<LookAt>
				<gx:TimeStamp><when>2021-11-26</when>
</gx:TimeStamp>
				<gx:ViewerOptions>
					<gx:option name="historicalimagery"></gx:option>
					<gx:option enabled="0" name="sunlight"></gx:option>
					<gx:option enabled="0" name="streetview"></gx:option>
				</gx:ViewerOptions>
				<longitude>112.0639613578138</longitude>
				<latitude>21.92053409368117</latitude>
				<altitude>0</altitude>
				<heading>3.695309254685465</heading>
				<tilt>30.00165476842158</tilt>
				<range>369.4278876600192</range>
				<gx:altitudeMode>relativeToSeaFloor</gx:altitudeMode>
			</LookAt>
			<styleUrl>#msn_ylw-pushpin2</styleUrl>
			<Point>
				<gx:drawOrder>1</gx:drawOrder>
				<coordinates>112.0643637891248,21.92053456343418,0</coordinates>
			</Point>
		</Placemark>
		<Placemark>
			<name>Pylon103</name>
			<open>1</open>
			<LookAt>
				<gx:TimeStamp><when>2021-11-26</when>
</gx:TimeStamp>
				<gx:ViewerOptions>
					<gx:option name="historicalimagery"></gx:option>
					<gx:option enabled="0" name="sunlight"></gx:option>
					<gx:option enabled="0" name="streetview"></gx:option>
				</gx:ViewerOptions>
				<longitude>112.0639613578138</longitude>
				<latitude>21.92053409368117</latitude>
				<altitude>0</altitude>
				<heading>3.695309254685465</heading>
				<tilt>30.00165476842158</tilt>
				<range>369.4278876600192</range>
				<gx:altitudeMode>relativeToSeaFloor</gx:altitudeMode>
			</LookAt>
			<styleUrl>#msn_ylw-pushpin2</styleUrl>
			<Point>
				<gx:drawOrder>1</gx:drawOrder>
				<coordinates>112.0637857001376,21.92091313148005,0</coordinates>
			</Point>
		</Placemark>
		<Placemark>
			<name>Pylon104</name>
			<open>1</open>
			<LookAt>
				<gx:TimeStamp><when>2021-11-26</when>
</gx:TimeStamp>
				<gx:ViewerOptions>
					<gx:option name="historicalimagery"></gx:option>
					<gx:option enabled="0" name="sunlight"></gx:option>
					<gx:option enabled="0" name="streetview"></gx:option>
				</gx:ViewerOptions>
				<longitude>112.0622612694316</longitude>
				<latitude>21.92201160276304</latitude>
				<altitude>0</altitude>
				<heading>3.671952475028848</heading>
				<tilt>26.05924819343712</tilt>
				<range>452.6588472095113</range>
				<gx:altitudeMode>relativeToSeaFloor</gx:altitudeMode>
			</LookAt>
			<styleUrl>#msn_ylw-pushpin2</styleUrl>
			<Point>
				<gx:drawOrder>1</gx:drawOrder>
				<coordinates>112.0628516629251,21.92232963101652,0</coordinates>
			</Point>
		</Placemark>
		<Placemark>
			<name>变电站1</name>
			<open>1</open>
			<LookAt>
				<gx:TimeStamp><when>2021-11-26</when>
</gx:TimeStamp>
				<gx:ViewerOptions>
					<gx:option name="historicalimagery"></gx:option>
					<gx:option enabled="0" name="sunlight"></gx:option>
					<gx:option enabled="0" name="streetview"></gx:option>
				</gx:ViewerOptions>
				<longitude>112.0623919730103</longitude>
				<latitude>21.9214479276618</latitude>
				<altitude>0</altitude>
				<heading>3.687849877615874</heading>
				<tilt>28.703678942596</tilt>
				<range>821.0477196225989</range>
				<gx:altitudeMode>relativeToSeaFloor</gx:altitudeMode>
			</LookAt>
			<styleUrl>#msn_purple-pushpin</styleUrl>
			<Point>
				<gx:drawOrder>1</gx:drawOrder>
				<coordinates>112.0621434763638,21.92251455016537,0</coordinates>
			</Point>
		</Placemark>
		<Placemark>
			<name>Pylon105</name>
			<open>1</open>
			<LookAt>
				<gx:TimeStamp><when>2021-11-26</when>
</gx:TimeStamp>
				<gx:ViewerOptions>
					<gx:option name="historicalimagery"></gx:option>
					<gx:option enabled="0" name="sunlight"></gx:option>
					<gx:option enabled="0" name="streetview"></gx:option>
				</gx:ViewerOptions>
				<longitude>112.0623919730103</longitude>
				<latitude>21.9214479276618</latitude>
				<altitude>0</altitude>
				<heading>3.687849877615874</heading>
				<tilt>28.703678942596</tilt>
				<range>821.0477196225989</range>
				<gx:altitudeMode>relativeToSeaFloor</gx:altitudeMode>
			</LookAt>
			<styleUrl>#msn_ylw-pushpin3</styleUrl>
			<Point>
				<gx:drawOrder>1</gx:drawOrder>
				<coordinates>112.0623108567096,21.92178809162806,0</coordinates>
			</Point>
		</Placemark>
		<Placemark>
			<name>Pylon106</name>
			<open>1</open>
			<LookAt>
				<longitude>112.0623373378234</longitude>
				<latitude>21.9194964814346</latitude>
				<altitude>0</altitude>
				<heading>0.01001352838111658</heading>
				<tilt>25.31855220892385</tilt>
				<range>193.388476267239</range>
				<gx:altitudeMode>relativeToSeaFloor</gx:altitudeMode>
			</LookAt>
			<styleUrl>#m_ylw-pushpin</styleUrl>
			<Point>
				<gx:drawOrder>1</gx:drawOrder>
				<coordinates>112.0621835175002,21.91954850822901,0</coordinates>
			</Point>
		</Placemark>
		<Placemark>
			<name>Pylon107</name>
			<LookAt>
				<longitude>112.0646960903289</longitude>
				<latitude>21.91804589717558</latitude>
				<altitude>0</altitude>
				<heading>3.675705938171946</heading>
				<tilt>23.18649080811202</tilt>
				<range>430.7977268786283</range>
				<gx:altitudeMode>relativeToSeaFloor</gx:altitudeMode>
			</LookAt>
			<styleUrl>#m_ylw-pushpin</styleUrl>
			<Point>
				<gx:drawOrder>1</gx:drawOrder>
				<coordinates>112.0646179180936,21.91811571194064,0</coordinates>
			</Point>
		</Placemark>
		<Placemark>
			<name>Pylon108</name>
			<LookAt>
				<longitude>112.0967585897677</longitude>
				<latitude>21.9159156389105</latitude>
				<altitude>0</altitude>
				<heading>3.687784890591712</heading>
				<tilt>27.67707461274095</tilt>
				<range>590.0195002062324</range>
				<gx:altitudeMode>relativeToSeaFloor</gx:altitudeMode>
			</LookAt>
			<styleUrl>#m_ylw-pushpin</styleUrl>
			<Point>
				<gx:drawOrder>1</gx:drawOrder>
				<coordinates>112.096278709474,21.91585305547342,0</coordinates>
			</Point>
		</Placemark>
		<Placemark>
			<name>Pylon109</name>
			<LookAt>
				<longitude>112.0989218296998</longitude>
				<latitude>21.91512938670557</latitude>
				<altitude>0</altitude>
				<heading>3.68859225257361</heading>
				<tilt>27.67707461274096</tilt>
				<range>590.0195002069297</range>
				<gx:altitudeMode>relativeToSeaFloor</gx:altitudeMode>
			</LookAt>
			<styleUrl>#m_ylw-pushpin</styleUrl>
			<Point>
				<gx:drawOrder>1</gx:drawOrder>
				<coordinates>112.0979715512084,21.91540870957495,0</coordinates>
			</Point>
		</Placemark>
		<Placemark>
			<name>Pylon110</name>
			<LookAt>
				<longitude>112.1055255717572</longitude>
				<latitude>21.91304708274299</latitude>
				<altitude>0</altitude>
				<heading>3.691056867199985</heading>
				<tilt>27.67707461274095</tilt>
				<range>590.0195002047977</range>
				<gx:altitudeMode>relativeToSeaFloor</gx:altitudeMode>
			</LookAt>
			<styleUrl>#m_ylw-pushpin</styleUrl>
			<Point>
				<gx:drawOrder>1</gx:drawOrder>
				<coordinates>112.1047493672945,21.91393166612145,0</coordinates>
			</Point>
		</Placemark>
		<Placemark>
			<name>Pylon111</name>
			<LookAt>
				<longitude>112.1055255717572</longitude>
				<latitude>21.91304708274299</latitude>
				<altitude>0</altitude>
				<heading>3.691056867199985</heading>
				<tilt>27.67707461274095</tilt>
				<range>590.0195002047977</range>
				<gx:altitudeMode>relativeToSeaFloor</gx:altitudeMode>
			</LookAt>
			<styleUrl>#m_ylw-pushpin</styleUrl>
			<Point>
				<gx:drawOrder>1</gx:drawOrder>
				<coordinates>112.1043927914162,21.91366320431099,0</coordinates>
			</Point>
		</Placemark>
		<Placemark>
			<name>Pylon112</name>
			<LookAt>
				<longitude>112.105856575312</longitude>
				<latitude>21.9111113661347</latitude>
				<altitude>0</altitude>
				<heading>3.691180359007397</heading>
				<tilt>27.67707461274093</tilt>
				<range>590.0195002048072</range>
				<gx:altitudeMode>relativeToSeaFloor</gx:altitudeMode>
			</LookAt>
			<styleUrl>#m_ylw-pushpin</styleUrl>
			<Point>
				<gx:drawOrder>1</gx:drawOrder>
				<coordinates>112.105907161024,21.91150272108672,0</coordinates>
			</Point>
		</Placemark>
		<Placemark>
			<name>Pylon113</name>
			<LookAt>
				<longitude>112.105856575312</longitude>
				<latitude>21.9111113661347</latitude>
				<altitude>0</altitude>
				<heading>3.691180359007397</heading>
				<tilt>27.67707461274093</tilt>
				<range>590.0195002048072</range>
				<gx:altitudeMode>relativeToSeaFloor</gx:altitudeMode>
			</LookAt>
			<styleUrl>#m_ylw-pushpin</styleUrl>
			<Point>
				<gx:drawOrder>1</gx:drawOrder>
				<coordinates>112.1055806724166,21.91138873551074,0</coordinates>
			</Point>
		</Placemark>
		<Placemark>
			<name>Pylon114</name>
			<LookAt>
				<longitude>112.105856575312</longitude>
				<latitude>21.9111113661347</latitude>
				<altitude>0</altitude>
				<heading>3.691180359007397</heading>
				<tilt>27.67707461274093</tilt>
				<range>590.0195002048072</range>
				<gx:altitudeMode>relativeToSeaFloor</gx:altitudeMode>
			</LookAt>
			<styleUrl>#m_ylw-pushpin</styleUrl>
			<Point>
				<gx:drawOrder>1</gx:drawOrder>
				<coordinates>112.1050492214785,21.91123113581035,0</coordinates>
			</Point>
		</Placemark>
		<Placemark>
			<name>Pylon115</name>
			<LookAt>
				<longitude>112.105856575312</longitude>
				<latitude>21.9111113661347</latitude>
				<altitude>0</altitude>
				<heading>3.691180359007397</heading>
				<tilt>27.67707461274093</tilt>
				<range>590.0195002048072</range>
				<gx:altitudeMode>relativeToSeaFloor</gx:altitudeMode>
			</LookAt>
			<styleUrl>#m_ylw-pushpin</styleUrl>
			<Point>
				<gx:drawOrder>1</gx:drawOrder>
				<coordinates>112.104691207902,21.91097713717739,0</coordinates>
			</Point>
		</Placemark>
		<Placemark>
			<name>Pylon116</name>
			<LookAt>
				<longitude>112.105856575312</longitude>
				<latitude>21.9111113661347</latitude>
				<altitude>0</altitude>
				<heading>3.691180359007397</heading>
				<tilt>27.67707461274093</tilt>
				<range>590.0195002048072</range>
				<gx:altitudeMode>relativeToSeaFloor</gx:altitudeMode>
			</LookAt>
			<styleUrl>#m_ylw-pushpin</styleUrl>
			<Point>
				<gx:drawOrder>1</gx:drawOrder>
				<coordinates>112.1051029353594,21.91076298579325,0</coordinates>
			</Point>
		</Placemark>
		<Placemark>
			<name>Pylon117</name>
			<LookAt>
				<longitude>112.105857287647</longitude>
				<latitude>21.91112226377895</latitude>
				<altitude>0</altitude>
				<heading>3.691180624836269</heading>
				<tilt>27.67707461274093</tilt>
				<range>590.0195002038931</range>
				<gx:altitudeMode>relativeToSeaFloor</gx:altitudeMode>
			</LookAt>
			<styleUrl>#m_ylw-pushpin</styleUrl>
			<Point>
				<gx:drawOrder>1</gx:drawOrder>
				<coordinates>112.1050977973835,21.91043678049005,0</coordinates>
			</Point>
		</Placemark>
		<Placemark>
			<name>Pylon118</name>
			<LookAt>
				<longitude>112.105857287647</longitude>
				<latitude>21.91112226377895</latitude>
				<altitude>0</altitude>
				<heading>3.691180624836269</heading>
				<tilt>27.67707461274093</tilt>
				<range>590.0195002038931</range>
				<gx:altitudeMode>relativeToSeaFloor</gx:altitudeMode>
			</LookAt>
			<styleUrl>#m_ylw-pushpin</styleUrl>
			<Point>
				<gx:drawOrder>1</gx:drawOrder>
				<coordinates>112.1050831094734,21.91005983855936,0</coordinates>
			</Point>
		</Placemark>
		<Placemark>
			<name>Pylon119</name>
			<LookAt>
				<longitude>112.1067893545232</longitude>
				<latitude>21.91197288872853</latitude>
				<altitude>0</altitude>
				<heading>3.691528443543295</heading>
				<tilt>27.67707461274093</tilt>
				<range>590.0195002064551</range>
				<gx:altitudeMode>relativeToSeaFloor</gx:altitudeMode>
			</LookAt>
			<styleUrl>#m_ylw-pushpin</styleUrl>
			<Point>
				<gx:drawOrder>1</gx:drawOrder>
				<coordinates>112.1063880268164,21.91232972373922,0</coordinates>
			</Point>
		</Placemark>
		<Placemark>
			<name>Pylon120</name>
			<LookAt>
				<longitude>112.1067893545232</longitude>
				<latitude>21.91197288872853</latitude>
				<altitude>0</altitude>
				<heading>3.691528443543295</heading>
				<tilt>27.67707461274093</tilt>
				<range>590.0195002064551</range>
				<gx:altitudeMode>relativeToSeaFloor</gx:altitudeMode>
			</LookAt>
			<styleUrl>#m_ylw-pushpin</styleUrl>
			<Point>
				<gx:drawOrder>1</gx:drawOrder>
				<coordinates>112.1062283319128,21.91287495632507,0</coordinates>
			</Point>
		</Placemark>
		<Placemark>
			<name>Pylon121</name>
			<LookAt>
				<longitude>112.1067893545232</longitude>
				<latitude>21.91197288872853</latitude>
				<altitude>0</altitude>
				<heading>3.691528443543295</heading>
				<tilt>27.67707461274093</tilt>
				<range>590.0195002064551</range>
				<gx:altitudeMode>relativeToSeaFloor</gx:altitudeMode>
			</LookAt>
			<styleUrl>#m_ylw-pushpin</styleUrl>
			<Point>
				<gx:drawOrder>1</gx:drawOrder>
				<coordinates>112.1076563868477,21.91285062672958,0</coordinates>
			</Point>
		</Placemark>
		<Placemark>
			<name>Pylon122</name>
			<LookAt>
				<longitude>112.1067893545232</longitude>
				<latitude>21.91197288872853</latitude>
				<altitude>0</altitude>
				<heading>3.691528443543295</heading>
				<tilt>27.67707461274093</tilt>
				<range>590.0195002064551</range>
				<gx:altitudeMode>relativeToSeaFloor</gx:altitudeMode>
			</LookAt>
			<styleUrl>#m_ylw-pushpin</styleUrl>
			<Point>
				<gx:drawOrder>1</gx:drawOrder>
				<coordinates>112.1078069179702,21.91223919995829,0</coordinates>
			</Point>
		</Placemark>
		<Placemark>
			<name>Pylon123</name>
			<LookAt>
				<longitude>112.1099712970415</longitude>
				<latitude>21.91189088360215</latitude>
				<altitude>0</altitude>
				<heading>3.692715894802583</heading>
				<tilt>27.67707461274098</tilt>
				<range>590.0195002068365</range>
				<gx:altitudeMode>relativeToSeaFloor</gx:altitudeMode>
			</LookAt>
			<styleUrl>#m_ylw-pushpin</styleUrl>
			<Point>
				<gx:drawOrder>1</gx:drawOrder>
				<coordinates>112.1091432100099,21.9122123472415,0</coordinates>
			</Point>
		</Placemark>
		<Placemark>
			<name>Pylon124</name>
			<LookAt>
				<longitude>112.1099712970415</longitude>
				<latitude>21.91189088360215</latitude>
				<altitude>0</altitude>
				<heading>3.692715894802583</heading>
				<tilt>27.67707461274098</tilt>
				<range>590.0195002068365</range>
				<gx:altitudeMode>relativeToSeaFloor</gx:altitudeMode>
			</LookAt>
			<styleUrl>#m_ylw-pushpin</styleUrl>
			<Point>
				<gx:drawOrder>1</gx:drawOrder>
				<coordinates>112.1097942783185,21.91281272295286,0</coordinates>
			</Point>
		</Placemark>
		<Placemark>
			<name>Pylon125</name>
			<LookAt>
				<longitude>112.1108130362501</longitude>
				<latitude>21.912777898329</latitude>
				<altitude>0</altitude>
				<heading>3.693030009810026</heading>
				<tilt>27.67707461274095</tilt>
				<range>590.0195002038824</range>
				<gx:altitudeMode>relativeToSeaFloor</gx:altitudeMode>
			</LookAt>
			<styleUrl>#m_ylw-pushpin</styleUrl>
			<Point>
				<gx:drawOrder>1</gx:drawOrder>
				<coordinates>112.1114351326168,21.91315757172356,0</coordinates>
			</Point>
		</Placemark>
		<Placemark>
			<name>Pylon126</name>
			<LookAt>
				<longitude>112.1108130362501</longitude>
				<latitude>21.912777898329</latitude>
				<altitude>0</altitude>
				<heading>3.693030009810026</heading>
				<tilt>27.67707461274095</tilt>
				<range>590.0195002038824</range>
				<gx:altitudeMode>relativeToSeaFloor</gx:altitudeMode>
			</LookAt>
			<styleUrl>#m_ylw-pushpin</styleUrl>
			<Point>
				<gx:drawOrder>1</gx:drawOrder>
				<coordinates>112.1126212859791,21.91285392692953,0</coordinates>
			</Point>
		</Placemark>
		<Placemark>
			<name>Pylon127</name>
			<LookAt>
				<longitude>112.10919274026</longitude>
				<latitude>21.90974746861056</latitude>
				<altitude>0</altitude>
				<heading>3.691692880310615</heading>
				<tilt>22.37348327661687</tilt>
				<range>641.8642739956509</range>
				<gx:altitudeMode>relativeToSeaFloor</gx:altitudeMode>
			</LookAt>
			<styleUrl>#m_ylw-pushpin</styleUrl>
			<Point>
				<gx:drawOrder>1</gx:drawOrder>
				<coordinates>112.1090710506425,21.91003655842871,0</coordinates>
			</Point>
		</Placemark>
		<Placemark>
			<name>Pylon128</name>
			<LookAt>
				<longitude>112.1104634321529</longitude>
				<latitude>21.91074334835201</latitude>
				<altitude>0</altitude>
				<heading>3.692775626221589</heading>
				<tilt>25.11669456354246</tilt>
				<range>538.6157950004247</range>
				<gx:altitudeMode>relativeToSeaFloor</gx:altitudeMode>
			</LookAt>
			<styleUrl>#m_ylw-pushpin</styleUrl>
			<Point>
				<gx:drawOrder>1</gx:drawOrder>
				<coordinates>112.1105643409927,21.91089195052627,0</coordinates>
			</Point>
		</Placemark>
		<Placemark>
			<name>Pylon129</name>
			<LookAt>
				<longitude>112.1095472147643</longitude>
				<latitude>21.90790577919978</latitude>
				<altitude>0</altitude>
				<heading>3.692314276467051</heading>
				<tilt>24.48938303928642</tilt>
				<range>579.7451731075686</range>
				<gx:altitudeMode>relativeToSeaFloor</gx:altitudeMode>
			</LookAt>
			<styleUrl>#m_ylw-pushpin</styleUrl>
			<Point>
				<gx:drawOrder>1</gx:drawOrder>
				<coordinates>112.1089859814481,21.90778791766886,0</coordinates>
			</Point>
		</Placemark>
		<Placemark>
			<name>Pylon130</name>
			<LookAt>
				<longitude>112.1092055534797</longitude>
				<latitude>21.9051121542029</latitude>
				<altitude>0</altitude>
				<heading>3.692241336334746</heading>
				<tilt>24.7912846026448</tilt>
				<range>681.3756630433376</range>
				<gx:altitudeMode>relativeToSeaFloor</gx:altitudeMode>
			</LookAt>
			<styleUrl>#m_ylw-pushpin</styleUrl>
			<Point>
				<gx:drawOrder>1</gx:drawOrder>
				<coordinates>112.1089298205593,21.9049849789525,0</coordinates>
			</Point>
		</Placemark>
		<Placemark>
			<name>Pylon131</name>
			<LookAt>
				<longitude>112.1080255394617</longitude>
				<latitude>21.90619628250388</latitude>
				<altitude>0</altitude>
				<heading>3.692069821138187</heading>
				<tilt>26.27940060814166</tilt>
				<range>437.3100811757236</range>
				<gx:altitudeMode>relativeToSeaFloor</gx:altitudeMode>
			</LookAt>
			<styleUrl>#m_ylw-pushpin</styleUrl>
			<Point>
				<gx:drawOrder>1</gx:drawOrder>
				<coordinates>112.1077402693047,21.9064688001447,0</coordinates>
			</Point>
		</Placemark>
		<Placemark>
			<name>Pylon132</name>
			<LookAt>
				<longitude>112.1076953902057</longitude>
				<latitude>21.90525050672492</latitude>
				<altitude>0</altitude>
				<heading>3.691946650142649</heading>
				<tilt>26.27940060814166</tilt>
				<range>437.3100811783744</range>
				<gx:altitudeMode>relativeToSeaFloor</gx:altitudeMode>
			</LookAt>
			<styleUrl>#m_ylw-pushpin</styleUrl>
			<Point>
				<gx:drawOrder>1</gx:drawOrder>
				<coordinates>112.1073651666886,21.90567476164582,0</coordinates>
			</Point>
		</Placemark>
		<Placemark>
			<name>Pylon133</name>
			<LookAt>
				<longitude>112.1076476621299</longitude>
				<latitude>21.90942217399929</latitude>
				<altitude>0</altitude>
				<heading>3.691751429066191</heading>
				<tilt>25.32384598883593</tilt>
				<range>534.7845043501409</range>
				<gx:altitudeMode>relativeToSeaFloor</gx:altitudeMode>
			</LookAt>
			<styleUrl>#m_ylw-pushpin</styleUrl>
			<Point>
				<gx:drawOrder>1</gx:drawOrder>
				<coordinates>112.1086631829035,21.90994841394919,0</coordinates>
			</Point>
		</Placemark>
		<Placemark>
			<name>Pylon134</name>
			<LookAt>
				<longitude>112.1076476621299</longitude>
				<latitude>21.90942217399929</latitude>
				<altitude>0</altitude>
				<heading>3.691751429066191</heading>
				<tilt>25.32384598883593</tilt>
				<range>534.7845043501409</range>
				<gx:altitudeMode>relativeToSeaFloor</gx:altitudeMode>
			</LookAt>
			<styleUrl>#m_ylw-pushpin</styleUrl>
			<Point>
				<gx:drawOrder>1</gx:drawOrder>
				<coordinates>112.1077254923034,21.91043315122133,0</coordinates>
			</Point>
		</Placemark>
		<Placemark>
			<name>Pylon135</name>
			<LookAt>
				<longitude>112.1076476621299</longitude>
				<latitude>21.90942217399929</latitude>
				<altitude>0</altitude>
				<heading>3.691751429066191</heading>
				<tilt>25.32384598883593</tilt>
				<range>534.7845043501409</range>
				<gx:altitudeMode>relativeToSeaFloor</gx:altitudeMode>
			</LookAt>
			<styleUrl>#m_ylw-pushpin</styleUrl>
			<Point>
				<gx:drawOrder>1</gx:drawOrder>
				<coordinates>112.1077217578926,21.91017261823341,0</coordinates>
			</Point>
		</Placemark>
		<Placemark>
			<name>Pylon136</name>
			<LookAt>
				<longitude>112.1076476621299</longitude>
				<latitude>21.90942217399929</latitude>
				<altitude>0</altitude>
				<heading>3.691751429066191</heading>
				<tilt>25.32384598883593</tilt>
				<range>534.7845043501409</range>
				<gx:altitudeMode>relativeToSeaFloor</gx:altitudeMode>
			</LookAt>
			<styleUrl>#m_ylw-pushpin</styleUrl>
			<Point>
				<gx:drawOrder>1</gx:drawOrder>
				<coordinates>112.1073849550932,21.91023014519619,0</coordinates>
			</Point>
		</Placemark>
		<Placemark>
			<name>Pylon137</name>
			<LookAt>
				<longitude>112.1076476621299</longitude>
				<latitude>21.90942217399929</latitude>
				<altitude>0</altitude>
				<heading>3.691751429066191</heading>
				<tilt>25.32384598883593</tilt>
				<range>534.7845043501409</range>
				<gx:altitudeMode>relativeToSeaFloor</gx:altitudeMode>
			</LookAt>
			<styleUrl>#m_ylw-pushpin</styleUrl>
			<Point>
				<gx:drawOrder>1</gx:drawOrder>
				<coordinates>112.1074691527569,21.90988204643671,0</coordinates>
			</Point>
		</Placemark>
		<Placemark>
			<name>Pylon138</name>
			<LookAt>
				<longitude>112.1076476621299</longitude>
				<latitude>21.90942217399929</latitude>
				<altitude>0</altitude>
				<heading>3.691751429066191</heading>
				<tilt>25.32384598883593</tilt>
				<range>534.7845043501409</range>
				<gx:altitudeMode>relativeToSeaFloor</gx:altitudeMode>
			</LookAt>
			<styleUrl>#m_ylw-pushpin</styleUrl>
			<Point>
				<gx:drawOrder>1</gx:drawOrder>
				<coordinates>112.1072001491562,21.90971916386748,0</coordinates>
			</Point>
		</Placemark>
		<Placemark>
			<name>Pylon139</name>
			<LookAt>
				<longitude>112.1076476621299</longitude>
				<latitude>21.90942217399929</latitude>
				<altitude>0</altitude>
				<heading>3.691751429066191</heading>
				<tilt>25.32384598883593</tilt>
				<range>534.7845043501409</range>
				<gx:altitudeMode>relativeToSeaFloor</gx:altitudeMode>
			</LookAt>
			<styleUrl>#m_ylw-pushpin</styleUrl>
			<Point>
				<gx:drawOrder>1</gx:drawOrder>
				<coordinates>112.1069356228187,21.90972035155444,0</coordinates>
			</Point>
		</Placemark>
		<Placemark>
			<name>Pylon140</name>
			<LookAt>
				<longitude>112.1076476621299</longitude>
				<latitude>21.90942217399929</latitude>
				<altitude>0</altitude>
				<heading>3.691751429066191</heading>
				<tilt>25.32384598883593</tilt>
				<range>534.7845043501409</range>
				<gx:altitudeMode>relativeToSeaFloor</gx:altitudeMode>
			</LookAt>
			<styleUrl>#m_ylw-pushpin</styleUrl>
			<Point>
				<gx:drawOrder>1</gx:drawOrder>
				<coordinates>112.1067285918244,21.90961194491309,0</coordinates>
			</Point>
		</Placemark>
		<Placemark>
			<name>Pylon141</name>
			<LookAt>
				<longitude>112.106891716418</longitude>
				<latitude>21.9069397443339</latitude>
				<altitude>0</altitude>
				<heading>3.691942086605905</heading>
				<tilt>28.12507764250067</tilt>
				<range>565.299326506194</range>
				<gx:altitudeMode>relativeToSeaFloor</gx:altitudeMode>
			</LookAt>
			<styleUrl>#m_ylw-pushpin</styleUrl>
			<Point>
				<gx:drawOrder>1</gx:drawOrder>
				<coordinates>112.1065445485301,21.90764657527194,0</coordinates>
			</Point>
		</Placemark>
		<Placemark>
			<name>Pylon142</name>
			<LookAt>
				<longitude>112.106891716418</longitude>
				<latitude>21.9069397443339</latitude>
				<altitude>0</altitude>
				<heading>3.691942086605905</heading>
				<tilt>28.12507764250067</tilt>
				<range>565.299326506194</range>
				<gx:altitudeMode>relativeToSeaFloor</gx:altitudeMode>
			</LookAt>
			<styleUrl>#m_ylw-pushpin</styleUrl>
			<Point>
				<gx:drawOrder>1</gx:drawOrder>
				<coordinates>112.1073979796428,21.90776379861562,0</coordinates>
			</Point>
		</Placemark>
		<Placemark>
			<name>Pylon143</name>
			<LookAt>
				<longitude>112.106891716418</longitude>
				<latitude>21.9069397443339</latitude>
				<altitude>0</altitude>
				<heading>3.691942086605905</heading>
				<tilt>28.12507764250067</tilt>
				<range>565.299326506194</range>
				<gx:altitudeMode>relativeToSeaFloor</gx:altitudeMode>
			</LookAt>
			<styleUrl>#m_ylw-pushpin</styleUrl>
			<Point>
				<gx:drawOrder>1</gx:drawOrder>
				<coordinates>112.1071081748091,21.90765298362308,0</coordinates>
			</Point>
		</Placemark>
		<Placemark>
			<name>Pylon144</name>
			<LookAt>
				<longitude>112.106891716418</longitude>
				<latitude>21.9069397443339</latitude>
				<altitude>0</altitude>
				<heading>3.691942086605905</heading>
				<tilt>28.12507764250067</tilt>
				<range>565.299326506194</range>
				<gx:altitudeMode>relativeToSeaFloor</gx:altitudeMode>
			</LookAt>
			<styleUrl>#m_ylw-pushpin</styleUrl>
			<Point>
				<gx:drawOrder>1</gx:drawOrder>
				<coordinates>112.1067894073906,21.90773000973168,0</coordinates>
			</Point>
		</Placemark>
		<Placemark>
			<name>Pylon145</name>
			<LookAt>
				<longitude>112.1057686363884</longitude>
				<latitude>21.90712859690839</latitude>
				<altitude>0</altitude>
				<heading>3.691523068653836</heading>
				<tilt>28.12507764250065</tilt>
				<range>565.2993265055439</range>
				<gx:altitudeMode>relativeToSeaFloor</gx:altitudeMode>
			</LookAt>
			<styleUrl>#m_ylw-pushpin</styleUrl>
			<Point>
				<gx:drawOrder>1</gx:drawOrder>
				<coordinates>112.1049993150988,21.90754355877687,0</coordinates>
			</Point>
		</Placemark>
		<Placemark>
			<name>Pylon146</name>
			<LookAt>
				<longitude>112.1065225920579</longitude>
				<latitude>21.90374177611177</latitude>
				<altitude>0</altitude>
				<heading>3.692095327221053</heading>
				<tilt>30.00192677815888</tilt>
				<range>428.9991654563187</range>
				<gx:altitudeMode>relativeToSeaFloor</gx:altitudeMode>
			</LookAt>
			<styleUrl>#m_ylw-pushpin</styleUrl>
			<Point>
				<gx:drawOrder>1</gx:drawOrder>
				<coordinates>112.106873063094,21.90371881063599,0</coordinates>
			</Point>
		</Placemark>
		<Placemark>
			<name>Pylon147</name>
			<LookAt>
				<longitude>112.106080233333</longitude>
				<latitude>21.90436796555905</latitude>
				<altitude>0</altitude>
				<heading>3.69193030395342</heading>
				<tilt>30.00192677815887</tilt>
				<range>428.999165455697</range>
				<gx:altitudeMode>relativeToSeaFloor</gx:altitudeMode>
			</LookAt>
			<styleUrl>#m_ylw-pushpin</styleUrl>
			<Point>
				<gx:drawOrder>1</gx:drawOrder>
				<coordinates>112.1063485404206,21.90517619056397,0</coordinates>
			</Point>
		</Placemark>
		<Placemark>
			<name>Pylon148</name>
			<LookAt>
				<longitude>112.1059451724374</longitude>
				<latitude>21.90346525488122</latitude>
				<altitude>0</altitude>
				<heading>3.691879872398283</heading>
				<tilt>30.00265989595209</tilt>
				<range>592.2350538676545</range>
				<gx:altitudeMode>relativeToSeaFloor</gx:altitudeMode>
			</LookAt>
			<styleUrl>#m_ylw-pushpin</styleUrl>
			<Point>
				<gx:drawOrder>1</gx:drawOrder>
				<coordinates>112.1049232907771,21.90395606621743,0</coordinates>
			</Point>
		</Placemark>
		<Placemark>
			<name>Pylon149</name>
			<LookAt>
				<longitude>112.106832917424</longitude>
				<latitude>21.90453058841511</latitude>
				<altitude>0</altitude>
				<heading>3.692119987448182</heading>
				<tilt>29.41727997937095</tilt>
				<range>314.8773611333934</range>
				<gx:altitudeMode>relativeToSeaFloor</gx:altitudeMode>
			</LookAt>
			<styleUrl>#m_ylw-pushpin</styleUrl>
			<Point>
				<gx:drawOrder>1</gx:drawOrder>
				<coordinates>112.1065352043401,21.90438622614344,0</coordinates>
			</Point>
		</Placemark>
		<Placemark>
			<name>Pylon150</name>
			<LookAt>
				<longitude>112.1068258959021</longitude>
				<latitude>21.90227540779041</latitude>
				<altitude>0</altitude>
				<heading>3.692117361319215</heading>
				<tilt>29.41727997937098</tilt>
				<range>314.8773611308221</range>
				<gx:altitudeMode>relativeToSeaFloor</gx:altitudeMode>
			</LookAt>
			<styleUrl>#m_ylw-pushpin</styleUrl>
			<Point>
				<gx:drawOrder>1</gx:drawOrder>
				<coordinates>112.1061023698934,21.90250279171921,0</coordinates>
			</Point>
		</Placemark>
		<Placemark>
			<name>Pylon151</name>
			<LookAt>
				<longitude>112.0997343236149</longitude>
				<latitude>21.9165933102141</latitude>
				<altitude>0</altitude>
				<heading>3.694210844545645</heading>
				<tilt>26.64651545200398</tilt>
				<range>376.8803390030472</range>
				<gx:altitudeMode>relativeToSeaFloor</gx:altitudeMode>
			</LookAt>
			<styleUrl>#m_ylw-pushpin</styleUrl>
			<Point>
				<gx:drawOrder>1</gx:drawOrder>
				<coordinates>112.0997221688201,21.91682202085304,0</coordinates>
			</Point>
		</Placemark>
		<Placemark>
			<name>变电站2</name>
			<LookAt>
				<longitude>112.1071387037433</longitude>
				<latitude>21.9092210565205</latitude>
				<altitude>0</altitude>
				<heading>3.696383860478028</heading>
				<tilt>26.15794315483011</tilt>
				<range>1150.179919448972</range>
				<gx:altitudeMode>relativeToSeaFloor</gx:altitudeMode>
			</LookAt>
			<styleUrl>#m_ylw-pushpin</styleUrl>
			<Point>
				<gx:drawOrder>1</gx:drawOrder>
				<coordinates>112.1062685736707,21.91042337689337,0</coordinates>
			</Point>
		</Placemark>
	</Folder>
</Document>
</kml>
